{"type": "FeatureCollection","crs": { "type": "name", "properties": { "name": "urn:ogc:def:crs:OGC:1.3:CRS84" } },

"features": [
{ "type": "Feature", "properties": { "FACIL_NAME": "Snark Missile Launch Complex", "STATE": "Maine", "BRANCH": "Air Force", "Latitude": 46.704800000, "Longitude": -68.045803000}, "geometry": { "type": "Point", "coordinates": [ -68.045803000, 46.704800000 ] } },
{ "type": "Feature", "properties": { "FACIL_NAME": "TONOPAH AIR FORCE STATION", "STATE": "Nevada", "BRANCH": "Air Force", "Latitude": 38.069211000, "Longitude": -117.23058610}, "geometry": { "type": "Point", "coordinates": [ -117.23058610, 38.069211000 ] } },
{ "type": "Feature", "properties": { "FACIL_NAME": "COOS HEAD AIR NATIONAL GUARD STATION", "STATE": "Oregon", "BRANCH": "Air Force", "Latitude": 43.347191000, "Longitude": -124.34004700}, "geometry": { "type": "Point", "coordinates": [ -124.34004700, 43.347191000 ] } },
{ "type": "Feature", "properties": { "FACIL_NAME": "Brooks-City Base", "STATE": "Texas", "BRANCH": "Air Force", "Latitude": 29.345990700, "Longitude": -98.444994400}, "geometry": { "type": "Point", "coordinates": [ -98.444994400, 29.345990700 ] } },
{ "type": "Feature", "properties": { "FACIL_NAME": "Carswell AFB", "STATE": "Texas", "BRANCH": "Air Force", "Latitude": 32.775079300, "Longitude": -97.423724100}, "geometry": { "type": "Point", "coordinates": [ -97.423724100, 32.775079300 ] } },
{ "type": "Feature", "properties": { "FACIL_NAME": "Alabama Army Ammunition Plant", "STATE": "Alabama", "BRANCH": "Army", "Latitude": 33.333333000, "Longitude": -86.333333000}, "geometry": { "type": "Point", "coordinates": [ -86.333333000, 33.333333000 ] } },
{ "type": "Feature", "properties": { "FACIL_NAME": "Fort Wainwright - Gerstle River Test Site", "STATE": "Alaska", "BRANCH": "Army", "Latitude": 63.759444000, "Longitude": -145.08472200}, "geometry": { "type": "Point", "coordinates": [ -145.08472200, 63.759444000 ] } },
{ "type": "Feature", "properties": { "FACIL_NAME": "Tempe Readiness Center", "STATE": "Arizona", "BRANCH": "Army", "Latitude": 33.420354400, "Longitude": -111.97217750}, "geometry": { "type": "Point", "coordinates": [ -111.97217750, 33.420354400 ] } },
{ "type": "Feature", "properties": { "FACIL_NAME": "Hamilton Airfield", "STATE": "California", "BRANCH": "Army", "Latitude": 38.057417000, "Longitude": -122.51318200}, "geometry": { "type": "Point", "coordinates": [ -122.51318200, 38.057417000 ] } },
{ "type": "Feature", "properties": { "FACIL_NAME": "PRESIDIO OF MONTERREY", "STATE": "California", "BRANCH": "Army", "Latitude": 36.604968000, "Longitude": -121.91130400}, "geometry": { "type": "Point", "coordinates": [ -121.91130400, 36.604968000 ] } },
{ "type": "Feature", "properties": { "FACIL_NAME": "Rio Vista", "STATE": "California", "BRANCH": "Army", "Latitude": 38.144644000, "Longitude": -121.69483300}, "geometry": { "type": "Point", "coordinates": [ -121.69483300, 38.144644000 ] } },
{ "type": "Feature", "properties": { "FACIL_NAME": "Stern Armory", "STATE": "Delaware", "BRANCH": "Army", "Latitude": 39.728841000, "Longitude": -75.623617000}, "geometry": { "type": "Point", "coordinates": [ -75.623617000, 39.728841000 ] } },
{ "type": "Feature", "properties": { "FACIL_NAME": "Pensacola (Ellyson Field)", "STATE": "Florida", "BRANCH": "Army", "Latitude": 30.528424800, "Longitude": -87.203129600}, "geometry": { "type": "Point", "coordinates": [ -87.203129600, 30.528424800 ] } },
{ "type": "Feature", "properties": { "FACIL_NAME": "Fort McPherson", "STATE": "Georgia", "BRANCH": "Army", "Latitude": 33.706628000, "Longitude": -84.434587000}, "geometry": { "type": "Point", "coordinates": [ -84.434587000, 33.706628000 ] } },
{ "type": "Feature", "properties": { "FACIL_NAME": "Georgia Garrison Training Center", "STATE": "Georgia", "BRANCH": "Army", "Latitude": 31.873671300, "Longitude": -81.593984900}, "geometry": { "type": "Point", "coordinates": [ -81.593984900, 31.873671300 ] } },
{ "type": "Feature", "properties": { "FACIL_NAME": "Hunter AAF - AASF Hangar 805", "STATE": "Georgia", "BRANCH": "Army", "Latitude": 32.030639000, "Longitude": -81.128929000}, "geometry": { "type": "Point", "coordinates": [ -81.128929000, 32.030639000 ] } },
{ "type": "Feature", "properties": { "FACIL_NAME": "AASF Guam", "STATE": "Guam", "BRANCH": "Army", "Latitude": 13.495100000, "Longitude": 144.811163000}, "geometry": { "type": "Point", "coordinates": [ 144.811163000, 13.495100000 ] } },
{ "type": "Feature", "properties": { "FACIL_NAME": "USAG HI - Dillingham Military Reservation", "STATE": "Hawaii", "BRANCH": "Army", "Latitude": 21.482992900, "Longitude": -158.04281380}, "geometry": { "type": "Point", "coordinates": [ -158.04281380, 21.482992900 ] } },
{ "type": "Feature", "properties": { "FACIL_NAME": "USAG HI - Helemano RAD REC Station", "STATE": "Hawaii", "BRANCH": "Army", "Latitude": 21.535960000, "Longitude": -158.01973700}, "geometry": { "type": "Point", "coordinates": [ -158.01973700, 21.535960000 ] } },
{ "type": "Feature", "properties": { "FACIL_NAME": "USAG HI - Kahuku Training Area", "STATE": "Hawaii", "BRANCH": "Army", "Latitude": 21.677219000, "Longitude": -157.95454800}, "geometry": { "type": "Point", "coordinates": [ -157.95454800, 21.677219000 ] } },
{ "type": "Feature", "properties": { "FACIL_NAME": "USAG HI - Kipapa Ammunition Storage Site", "STATE": "Hawaii", "BRANCH": "Army", "Latitude": 21.460482800, "Longitude": -158.01012640}, "geometry": { "type": "Point", "coordinates": [ -158.01012640, 21.460482800 ] } },
{ "type": "Feature", "properties": { "FACIL_NAME": "USAG HI - Kunia Field Station", "STATE": "Hawaii", "BRANCH": "Army", "Latitude": 21.476522100, "Longitude": -158.05296750}, "geometry": { "type": "Point", "coordinates": [ -158.05296750, 21.476522100 ] } },
{ "type": "Feature", "properties": { "FACIL_NAME": "USAG HI - Makua Military Reservation", "STATE": "Hawaii", "BRANCH": "Army", "Latitude": 21.528407000, "Longitude": -158.22741440}, "geometry": { "type": "Point", "coordinates": [ -158.22741440, 21.528407000 ] } },
{ "type": "Feature", "properties": { "FACIL_NAME": "USAG HI - Pohakuloa Training Center", "STATE": "Hawaii", "BRANCH": "Army", "Latitude": 19.673578000, "Longitude": -155.34238000}, "geometry": { "type": "Point", "coordinates": [ -155.34238000, 19.673578000 ] } },
{ "type": "Feature", "properties": { "FACIL_NAME": "USAG HI - Waikakalaua Ammunition Storage Tunnels", "STATE": "Hawaii", "BRANCH": "Army", "Latitude": 21.438912300, "Longitude": -158.00005650}, "geometry": { "type": "Point", "coordinates": [ -158.00005650, 21.438912300 ] } },
{ "type": "Feature", "properties": { "FACIL_NAME": "Charles Melvin Price Support Center", "STATE": "Illinois", "BRANCH": "Army", "Latitude": 38.702040000, "Longitude": -90.175395000}, "geometry": { "type": "Point", "coordinates": [ -90.175395000, 38.702040000 ] } },
{ "type": "Feature", "properties": { "FACIL_NAME": "Joliet Army Ammunition Plant", "STATE": "Illinois", "BRANCH": "Army", "Latitude": 41.397390000, "Longitude": -88.138758000}, "geometry": { "type": "Point", "coordinates": [ -88.138758000, 41.397390000 ] } },
{ "type": "Feature", "properties": { "FACIL_NAME": "Kankakee AASF / Readiness Center", "STATE": "Illinois", "BRANCH": "Army", "Latitude": 41.063078000, "Longitude": -87.845407000}, "geometry": { "type": "Point", "coordinates": [ -87.845407000, 41.063078000 ] } },
{ "type": "Feature", "properties": { "FACIL_NAME": "ASF New Century", "STATE": "Kansas", "BRANCH": "Army", "Latitude": 38.826556000, "Longitude": -94.897183000}, "geometry": { "type": "Point", "coordinates": [ -94.897183000, 38.826556000 ] } },
{ "type": "Feature", "properties": { "FACIL_NAME": "Camp Villere", "STATE": "Louisiana", "BRANCH": "Army", "Latitude": 30.317523600, "Longitude": -89.813031300}, "geometry": { "type": "Point", "coordinates": [ -89.813031300, 30.317523600 ] } },
{ "type": "Feature", "properties": { "FACIL_NAME": "Fort Polk - Peason Ridge", "STATE": "Louisiana", "BRANCH": "Army", "Latitude": 31.369858200, "Longitude": -93.268421500}, "geometry": { "type": "Point", "coordinates": [ -93.268421500, 31.369858200 ] } },
{ "type": "Feature", "properties": { "FACIL_NAME": "St. Louis Army Ammunition Plant", "STATE": "Missouri", "BRANCH": "Army", "Latitude": 38.688799000, "Longitude": -90.263707000}, "geometry": { "type": "Point", "coordinates": [ -90.263707000, 38.688799000 ] } },
{ "type": "Feature", "properties": { "FACIL_NAME": "Riorancho", "STATE": "New Mexico", "BRANCH": "Army", "Latitude": 35.232754400, "Longitude": -106.66304370}, "geometry": { "type": "Point", "coordinates": [ -106.66304370, 35.232754400 ] } },
{ "type": "Feature", "properties": { "FACIL_NAME": "Lima Army Tank Plant", "STATE": "Ohio", "BRANCH": "Army", "Latitude": 40.703016500, "Longitude": -84.130980400}, "geometry": { "type": "Point", "coordinates": [ -84.130980400, 40.703016500 ] } },
{ "type": "Feature", "properties": { "FACIL_NAME": "Mansfield LAHM Fire Station", "STATE": "Ohio", "BRANCH": "Army", "Latitude": 40.759257400, "Longitude": -82.510497200}, "geometry": { "type": "Point", "coordinates": [ -82.510497200, 40.759257400 ] } },
{ "type": "Feature", "properties": { "FACIL_NAME": "Central Oregon Unit Training Equipment Site", "STATE": "Oregon", "BRANCH": "Army", "Latitude": 44.255526000, "Longitude": -121.13344720}, "geometry": { "type": "Point", "coordinates": [ -121.13344720, 44.255526000 ] } },
{ "type": "Feature", "properties": { "FACIL_NAME": "Pang Base Enclave", "STATE": "Oregon", "BRANCH": "Army", "Latitude": 45.574732600, "Longitude": -122.59676860}, "geometry": { "type": "Point", "coordinates": [ -122.59676860, 45.574732600 ] } },
{ "type": "Feature", "properties": { "FACIL_NAME": "Joint Base Berry Field", "STATE": "Tennessee", "BRANCH": "Army", "Latitude": 36.130607100, "Longitude": -86.669557100}, "geometry": { "type": "Point", "coordinates": [ -86.669557100, 36.130607100 ] } },
{ "type": "Feature", "properties": { "FACIL_NAME": "Volunteer Army Ammunition Plant", "STATE": "Tennessee", "BRANCH": "Army", "Latitude": 35.083410000, "Longitude": -85.137906000}, "geometry": { "type": "Point", "coordinates": [ -85.137906000, 35.083410000 ] } },
{ "type": "Feature", "properties": { "FACIL_NAME": "White Sands Missile Range - Green River Test Site", "STATE": "Utah", "BRANCH": "Army", "Latitude": 38.941300000, "Longitude": -110.07530000}, "geometry": { "type": "Point", "coordinates": [ -110.07530000, 38.941300000 ] } },
{ "type": "Feature", "properties": { "FACIL_NAME": "AASF #2 - WA", "STATE": "Washington", "BRANCH": "Army", "Latitude": 47.626730000, "Longitude": -117.63292900}, "geometry": { "type": "Point", "coordinates": [ -117.63292900, 47.626730000 ] } },
{ "type": "Feature", "properties": { "FACIL_NAME": "Parkersburg AASF #1", "STATE": "West Virginia", "BRANCH": "Army", "Latitude": 39.352384000, "Longitude": -81.444013300}, "geometry": { "type": "Point", "coordinates": [ -81.444013300, 39.352384000 ] } },
{ "type": "Feature", "properties": { "FACIL_NAME": "Wheeling - AASF #2", "STATE": "West Virginia", "BRANCH": "Army", "Latitude": 40.173685000, "Longitude": -80.640209000}, "geometry": { "type": "Point", "coordinates": [ -80.640209000, 40.173685000 ] } },
{ "type": "Feature", "properties": { "FACIL_NAME": "Presque Isle SFRO", "STATE": "Maine", "BRANCH": "Army National Guard", "Latitude": 46.698554000, "Longitude": -68.003976000}, "geometry": { "type": "Point", "coordinates": [ -68.003976000, 46.698554000 ] } },
{ "type": "Feature", "properties": { "FACIL_NAME": "Camp Edwards", "STATE": "Massachusetts", "BRANCH": "Army National Guard", "Latitude": 41.654225100, "Longitude": -70.537690200}, "geometry": { "type": "Point", "coordinates": [ -70.537690200, 41.654225100 ] } },
{ "type": "Feature", "properties": { "FACIL_NAME": "South Burlington AASF / Readiness Center", "STATE": "Vermont", "BRANCH": "Army National Guard", "Latitude": 44.481848000, "Longitude": -73.162980000}, "geometry": { "type": "Point", "coordinates": [ -73.162980000, 44.481848000 ] } },
{ "type": "Feature", "properties": { "FACIL_NAME": "Lompoc", "STATE": "California", "BRANCH": "BRAC", "Latitude": 34.678360000, "Longitude": -120.50144600}, "geometry": { "type": "Point", "coordinates": [ -120.50144600, 34.678360000 ] } },
{ "type": "Feature", "properties": { "FACIL_NAME": "USCG Aviation Training Center", "STATE": "Alabama", "BRANCH": "Coast Guard", "Latitude": 30.696046000, "Longitude": -88.242326000}, "geometry": { "type": "Point", "coordinates": [ -88.242326000, 30.696046000 ] } },
{ "type": "Feature", "properties": { "FACIL_NAME": "Air Station Sitka", "STATE": "Alaska", "BRANCH": "Coast Guard", "Latitude": 57.055194000, "Longitude": -135.36984100}, "geometry": { "type": "Point", "coordinates": [ -135.36984100, 57.055194000 ] } },
{ "type": "Feature", "properties": { "FACIL_NAME": "Air Support Facility Cordova", "STATE": "Alaska", "BRANCH": "Coast Guard", "Latitude": 60.543509000, "Longitude": -145.72871400}, "geometry": { "type": "Point", "coordinates": [ -145.72871400, 60.543509000 ] } },
{ "type": "Feature", "properties": { "FACIL_NAME": "USCG Base Ketchikan", "STATE": "Alaska", "BRANCH": "Coast Guard", "Latitude": 55.332461000, "Longitude": -131.62534700}, "geometry": { "type": "Point", "coordinates": [ -131.62534700, 55.332461000 ] } },
{ "type": "Feature", "properties": { "FACIL_NAME": "USCG Base Kodiak", "STATE": "Alaska", "BRANCH": "Coast Guard", "Latitude": 57.737587000, "Longitude": -152.50653700}, "geometry": { "type": "Point", "coordinates": [ -152.50653700, 57.737587000 ] } },
{ "type": "Feature", "properties": { "FACIL_NAME": "Air Station Humboldt Bay, CA", "STATE": "California", "BRANCH": "Coast Guard", "Latitude": 40.766989000, "Longitude": -124.21780200}, "geometry": { "type": "Point", "coordinates": [ -124.21780200, 40.766989000 ] } },
{ "type": "Feature", "properties": { "FACIL_NAME": "Air Station Sacramento", "STATE": "California", "BRANCH": "Coast Guard", "Latitude": 38.677188000, "Longitude": -121.39554700}, "geometry": { "type": "Point", "coordinates": [ -121.39554700, 38.677188000 ] } },
{ "type": "Feature", "properties": { "FACIL_NAME": "Air Station San Francisco", "STATE": "California", "BRANCH": "Coast Guard", "Latitude": 37.632441000, "Longitude": -122.38935700}, "geometry": { "type": "Point", "coordinates": [ -122.38935700, 37.632441000 ] } },
{ "type": "Feature", "properties": { "FACIL_NAME": "Operation Bahamas, Turks & Caicos (OPBAT)", "STATE": "Caribbean", "BRANCH": "Coast Guard", "Latitude": 20.974838000, "Longitude": -73.675063000}, "geometry": { "type": "Point", "coordinates": [ -73.675063000, 20.974838000 ] } },
{ "type": "Feature", "properties": { "FACIL_NAME": "Air Station Clearwater", "STATE": "Florida", "BRANCH": "Coast Guard", "Latitude": 27.911626000, "Longitude": -82.699080000}, "geometry": { "type": "Point", "coordinates": [ -82.699080000, 27.911626000 ] } },
{ "type": "Feature", "properties": { "FACIL_NAME": "USCG Base Miami Beach", "STATE": "Florida", "BRANCH": "Coast Guard", "Latitude": 25.905959000, "Longitude": -80.277457000}, "geometry": { "type": "Point", "coordinates": [ -80.277457000, 25.905959000 ] } },
{ "type": "Feature", "properties": { "FACIL_NAME": "USCG Base Boston", "STATE": "Massachusetts", "BRANCH": "Coast Guard", "Latitude": 42.368735000, "Longitude": -71.051996000}, "geometry": { "type": "Point", "coordinates": [ -71.051996000, 42.368735000 ] } },
{ "type": "Feature", "properties": { "FACIL_NAME": "Air Station Detroit, MI", "STATE": "Michigan", "BRANCH": "Coast Guard", "Latitude": 42.625985000, "Longitude": -82.844374000}, "geometry": { "type": "Point", "coordinates": [ -82.844374000, 42.625985000 ] } },
{ "type": "Feature", "properties": { "FACIL_NAME": "Air Station Traverse City, MI", "STATE": "Michigan", "BRANCH": "Coast Guard", "Latitude": 44.747520000, "Longitude": -85.584955000}, "geometry": { "type": "Point", "coordinates": [ -85.584955000, 44.747520000 ] } },
{ "type": "Feature", "properties": { "FACIL_NAME": "USCG Training Center Cape May", "STATE": "New Jersey", "BRANCH": "Coast Guard", "Latitude": 38.947489000, "Longitude": -74.881007000}, "geometry": { "type": "Point", "coordinates": [ -74.881007000, 38.947489000 ] } },
{ "type": "Feature", "properties": { "FACIL_NAME": "Air Station Brooklyn NY", "STATE": "New York", "BRANCH": "Coast Guard", "Latitude": 40.591542000, "Longitude": -73.890585000}, "geometry": { "type": "Point", "coordinates": [ -73.890585000, 40.591542000 ] } },
{ "type": "Feature", "properties": { "FACIL_NAME": "USCG Base Elizabeth City", "STATE": "North Carolina", "BRANCH": "Coast Guard", "Latitude": 36.263295000, "Longitude": -76.174332000}, "geometry": { "type": "Point", "coordinates": [ -76.174332000, 36.263295000 ] } },
{ "type": "Feature", "properties": { "FACIL_NAME": "USCG Base Cleveland", "STATE": "Ohio", "BRANCH": "Coast Guard", "Latitude": 41.510798000, "Longitude": -81.693721000}, "geometry": { "type": "Point", "coordinates": [ -81.693721000, 41.510798000 ] } },
{ "type": "Feature", "properties": { "FACIL_NAME": "Air Station Astoria, OR", "STATE": "Oregon", "BRANCH": "Coast Guard", "Latitude": 46.155564000, "Longitude": -123.88412500}, "geometry": { "type": "Point", "coordinates": [ -123.88412500, 46.155564000 ] } },
{ "type": "Feature", "properties": { "FACIL_NAME": "Air Station North Bend, OR", "STATE": "Oregon", "BRANCH": "Coast Guard", "Latitude": 43.410330000, "Longitude": -124.24174300}, "geometry": { "type": "Point", "coordinates": [ -124.24174300, 43.410330000 ] } },
{ "type": "Feature", "properties": { "FACIL_NAME": "Air Station Borinquen", "STATE": "Puerto Rico", "BRANCH": "Coast Guard", "Latitude": 18.496282000, "Longitude": -67.131174000}, "geometry": { "type": "Point", "coordinates": [ -67.131174000, 18.496282000 ] } },
{ "type": "Feature", "properties": { "FACIL_NAME": "BSU Portsmouth", "STATE": "Virginia", "BRANCH": "Coast Guard", "Latitude": 36.882287000, "Longitude": -76.352540000}, "geometry": { "type": "Point", "coordinates": [ -76.352540000, 36.882287000 ] } },
{ "type": "Feature", "properties": { "FACIL_NAME": "Air Station Port Angeles, WA", "STATE": "Washington", "BRANCH": "Coast Guard", "Latitude": 48.140591000, "Longitude": -123.40969400}, "geometry": { "type": "Point", "coordinates": [ -123.40969400, 48.140591000 ] } },
{ "type": "Feature", "properties": { "FACIL_NAME": "USCG Base Seattle", "STATE": "Washington", "BRANCH": "Coast Guard", "Latitude": 47.589830000, "Longitude": -122.34196400}, "geometry": { "type": "Point", "coordinates": [ -122.34196400, 47.589830000 ] } },
{ "type": "Feature", "properties": { "FACIL_NAME": "DFSP Norwalk", "STATE": "California", "BRANCH": "DLA", "Latitude": 33.892391000, "Longitude": -118.07290900}, "geometry": { "type": "Point", "coordinates": [ -118.07290900, 33.892391000 ] } },
{ "type": "Feature", "properties": { "FACIL_NAME": "DFSP Ozol", "STATE": "California", "BRANCH": "DLA", "Latitude": 38.026587900, "Longitude": -122.16302190}, "geometry": { "type": "Point", "coordinates": [ -122.16302190, 38.026587900 ] } },
{ "type": "Feature", "properties": { "FACIL_NAME": "DFSP San Pedro", "STATE": "California", "BRANCH": "DLA", "Latitude": 33.775384000, "Longitude": -118.29718710}, "geometry": { "type": "Point", "coordinates": [ -118.29718710, 33.775384000 ] } },
{ "type": "Feature", "properties": { "FACIL_NAME": "Defense Distribution Center Susquehanna", "STATE": "Pennsylvania", "BRANCH": "DLA", "Latitude": 40.207874100, "Longitude": -76.848623300}, "geometry": { "type": "Point", "coordinates": [ -76.848623300, 40.207874100 ] } },
{ "type": "Feature", "properties": { "FACIL_NAME": "Defense Supply Center Richmond", "STATE": "Virginia", "BRANCH": "DLA", "Latitude": 37.414644000, "Longitude": -77.440685000}, "geometry": { "type": "Point", "coordinates": [ -77.440685000, 37.414644000 ] } },
{ "type": "Feature", "properties": { "FACIL_NAME": "NAVAL AUX LANDING FIELD", "STATE": "Rhode Island", "BRANCH": "FUDS", "Latitude": 41.372054000, "Longitude": -71.663907000}, "geometry": { "type": "Point", "coordinates": [ -71.663907000, 41.372054000 ] } },
{ "type": "Feature", "properties": { "FACIL_NAME": "MANCHESTER ANNEX", "STATE": "Washington", "BRANCH": "FUDS", "Latitude": 47.568394000, "Longitude": -122.55280700}, "geometry": { "type": "Point", "coordinates": [ -122.55280700, 47.568394000 ] } },
{ "type": "Feature", "properties": { "FACIL_NAME": "NAVBASE CORONADO", "STATE": "California", "BRANCH": "Navy", "Latitude": 32.676127800, "Longitude": -117.15768380}, "geometry": { "type": "Point", "coordinates": [ -117.15768380, 32.676127800 ] } },
{ "type": "Feature", "properties": { "FACIL_NAME": "NAVBASE SAN DIEGO", "STATE": "California", "BRANCH": "Navy", "Latitude": 32.684761900, "Longitude": -117.12996370}, "geometry": { "type": "Point", "coordinates": [ -117.12996370, 32.684761900 ] } },
{ "type": "Feature", "properties": { "FACIL_NAME": "NAVCOMTELSTA STOCKTON", "STATE": "California", "BRANCH": "Navy", "Latitude": 37.950463000, "Longitude": -121.36089000}, "geometry": { "type": "Point", "coordinates": [ -121.36089000, 37.950463000 ] } },
{ "type": "Feature", "properties": { "FACIL_NAME": "SAN DIEGO CA AUXLNDFLD", "STATE": "California", "BRANCH": "Navy", "Latitude": 33.022457000, "Longitude": -118.58732400}, "geometry": { "type": "Point", "coordinates": [ -118.58732400, 33.022457000 ] } },
{ "type": "Feature", "properties": { "FACIL_NAME": "SAN DIEGO CA FASWTC PAC / SAN DIEGO CA NISE-WEST", "STATE": "California", "BRANCH": "Navy", "Latitude": 32.725491000, "Longitude": -117.21841100}, "geometry": { "type": "Point", "coordinates": [ -117.21841100, 32.725491000 ] } },
{ "type": "Feature", "properties": { "FACIL_NAME": "NSA ANDERSEN GUAM", "STATE": "Guam", "BRANCH": "Navy", "Latitude": 13.584317000, "Longitude": 144.931144000}, "geometry": { "type": "Point", "coordinates": [ 144.931144000, 13.584317000 ] } },
{ "type": "Feature", "properties": { "FACIL_NAME": "Annapolis NSWC Carderock DIV Det", "STATE": "Maryland", "BRANCH": "Navy", "Latitude": 38.973407400, "Longitude": -77.195092700}, "geometry": { "type": "Point", "coordinates": [ -77.195092700, 38.973407400 ] } },
{ "type": "Feature", "properties": { "FACIL_NAME": "NAVSURFWARCEN WBETH DD", "STATE": "Maryland", "BRANCH": "Navy", "Latitude": 38.973842000, "Longitude": -77.196196000}, "geometry": { "type": "Point", "coordinates": [ -77.196196000, 38.973842000 ] } },
{ "type": "Feature", "properties": { "FACIL_NAME": "Puerto Rico NA/NAVACT", "STATE": "Puerto Rico", "BRANCH": "Navy", "Latitude": 18.242998000, "Longitude": -65.642312000}, "geometry": { "type": "Point", "coordinates": [ -65.642312000, 18.242998000 ] } },
{ "type": "Feature", "properties": { "FACIL_NAME": "SAN JUAN PR MCRC", "STATE": "Puerto Rico", "BRANCH": "Navy", "Latitude": 18.460782000, "Longitude": -66.116918000}, "geometry": { "type": "Point", "coordinates": [ -66.116918000, 18.460782000 ] } },
{ "type": "Feature", "properties": { "FACIL_NAME": "BRISTOL TN NWIRP", "STATE": "Tennessee", "BRANCH": "Navy", "Latitude": 36.551089000, "Longitude": -82.177829000}, "geometry": { "type": "Point", "coordinates": [ -82.177829000, 36.551089000 ] } },
{ "type": "Feature", "properties": { "FACIL_NAME": "INDIAN ISLAND WA NAVMAG", "STATE": "Washington", "BRANCH": "Navy", "Latitude": 48.053028900, "Longitude": -122.72794560}, "geometry": { "type": "Point", "coordinates": [ -122.72794560, 48.053028900 ] } },
{ "type": "Feature", "properties": { "FACIL_NAME": "Puget Sound NS Sand Point", "STATE": "Washington", "BRANCH": "Navy", "Latitude": 47.681972000, "Longitude": -122.25547200}, "geometry": { "type": "Point", "coordinates": [ -122.25547200, 47.681972000 ] } }
] }