{"type": "FeatureCollection","crs": { "type": "name", "properties": { "name": "urn:ogc:def:crs:OGC:1.3:CRS84" } },"features": [{ "type": "Feature", "properties": { "basename": "FORT MCCLELLAN", "branch": "Army", "state":"Alabama", "Longitude": -85.789846000, "Latitude": 33.725725000 }, "geometry": { "type": "Point", "coordinates": [ -85.789846000, 33.725725000 ] } },{ "type": "Feature", "properties": { "basename": "FORT RUCKER", "branch": "Army", "state":"Alabama", "Longitude": -85.712656000, "Latitude": 31.337500000 }, "geometry": { "type": "Point", "coordinates": [ -85.712656000, 31.337500000 ] } },{ "type": "Feature", "properties": { "basename": "FORT GREELY", "branch": "Army", "state":"Alaska", "Longitude": -145.700694000, "Latitude": 63.958339000 }, "geometry": { "type": "Point", "coordinates": [ -145.700694000, 63.958339000 ] } },{ "type": "Feature", "properties": { "basename": "FORT WAINWRIGHT", "branch": "Army", "state":"Alaska", "Longitude": -147.607934000, "Latitude": 64.841829000 }, "geometry": { "type": "Point", "coordinates": [ -147.607934000, 64.841829000 ] } },{ "type": "Feature", "properties": { "basename": "HAINES PIPELINE", "branch": "Army", "state":"Alaska", "Longitude": -135.452610000, "Latitude": 59.275310000 }, "geometry": { "type": "Point", "coordinates": [ -135.452610000, 59.275310000 ] } },{ "type": "Feature", "properties": { "basename": "FORT HUACHUCA", "branch": "Army", "state":"Arizona", "Longitude": -110.346480000, "Latitude": 31.563570000 }, "geometry": { "type": "Point", "coordinates": [ -110.346480000, 31.563570000 ] } },{ "type": "Feature", "properties": { "basename": "YUMA PROVING GROUND", "branch": "Army", "state":"Arizona", "Longitude": -114.439220000, "Latitude": 32.859870000 }, "geometry": { "type": "Point", "coordinates": [ -114.439220000, 32.859870000 ] } },{ "type": "Feature", "properties": { "basename": "FORT CHAFFEE", "branch": "Army", "state":"Arkansas", "Longitude": -94.274959000, "Latitude": 35.303349000 }, "geometry": { "type": "Point", "coordinates": [ -94.274959000, 35.303349000 ] } },{ "type": "Feature", "properties": { "basename": "FORT HUNTER LIGGETT", "branch": "Army", "state":"California", "Longitude": -121.236930000, "Latitude": 36.008680000 }, "geometry": { "type": "Point", "coordinates": [ -121.236930000, 36.008680000 ] } },{ "type": "Feature", "properties": { "basename": "FORT ORD", "branch": "Army", "state":"California", "Longitude": -121.691360000, "Latitude": 36.626610000 }, "geometry": { "type": "Point", "coordinates": [ -121.691360000, 36.626610000 ] } },{ "type": "Feature", "properties": { "basename": "MANEUVER TRAINING CENTER - CAMP ROBERTS", "branch": "Army", "state":"California", "Longitude": -120.743466000, "Latitude": 35.816232000 }, "geometry": { "type": "Point", "coordinates": [ -120.743466000, 35.816232000 ] } },{ "type": "Feature", "properties": { "basename": "NATIONAL TRAINING CENTER AND FORT IRWIN", "branch": "Army", "state":"California", "Longitude": -116.691445000, "Latitude": 35.263260000 }, "geometry": { "type": "Point", "coordinates": [ -116.691445000, 35.263260000 ] } },{ "type": "Feature", "properties": { "basename": "PARKS RESERVE FORCES TRAINING AREA", "branch": "Army", "state":"California", "Longitude": -121.907614000, "Latitude": 37.715335000 }, "geometry": { "type": "Point", "coordinates": [ -121.907614000, 37.715335000 ] } },{ "type": "Feature", "properties": { "basename": "SACRAMENTO ARMY DEPOT", "branch": "Army", "state":"California", "Longitude": -121.395868000, "Latitude": 38.524514000 }, "geometry": { "type": "Point", "coordinates": [ -121.395868000, 38.524514000 ] } },{ "type": "Feature", "properties": { "basename": "SIERRA ARMY DEPOT", "branch": "Army", "state":"California", "Longitude": -120.126170000, "Latitude": 40.146750000 }, "geometry": { "type": "Point", "coordinates": [ -120.126170000, 40.146750000 ] } },{ "type": "Feature", "properties": { "basename": "TS AFRC LOS ALAMITOS", "branch": "Army", "state":"California", "Longitude": -118.055670000, "Latitude": 33.790700000 }, "geometry": { "type": "Point", "coordinates": [ -118.055670000, 33.790700000 ] } },{ "type": "Feature", "properties": { "basename": "FORT CARSON", "branch": "Army", "state":"Colorado", "Longitude": -104.790640000, "Latitude": 38.741374000 }, "geometry": { "type": "Point", "coordinates": [ -104.790640000, 38.741374000 ] } },{ "type": "Feature", "properties": { "basename": "FORT BENNING", "branch": "Army", "state":"Georgia", "Longitude": -84.808617000, "Latitude": 32.373421000 }, "geometry": { "type": "Point", "coordinates": [ -84.808617000, 32.373421000 ] } },{ "type": "Feature", "properties": { "basename": "FORT STEWART", "branch": "Army", "state":"Georgia", "Longitude": -81.607774000, "Latitude": 31.864719000 }, "geometry": { "type": "Point", "coordinates": [ -81.607774000, 31.864719000 ] } },{ "type": "Feature", "properties": { "basename": "HUNTER ARMY AIRFIELD", "branch": "Army", "state":"Georgia", "Longitude": -81.631887000, "Latitude": 31.870755000 }, "geometry": { "type": "Point", "coordinates": [ -81.631887000, 31.870755000 ] } },{ "type": "Feature", "properties": { "basename": "FORT KAMEHAMEHA", "branch": "Army", "state":"Hawaii", "Longitude": -157.959366000, "Latitude": 21.328618000 }, "geometry": { "type": "Point", "coordinates": [ -157.959366000, 21.328618000 ] } },{ "type": "Feature", "properties": { "basename": "POHAKULOA TRAINING AREA", "branch": "Army", "state":"Hawaii", "Longitude": -155.342208000, "Latitude": 19.673363000 }, "geometry": { "type": "Point", "coordinates": [ -155.342208000, 19.673363000 ] } },{ "type": "Feature", "properties": { "basename": "SAVANNA DEPOT ACTIVITY", "branch": "Army", "state":"Illinois", "Longitude": -90.244591000, "Latitude": 42.190504000 }, "geometry": { "type": "Point", "coordinates": [ -90.244591000, 42.190504000 ] } },{ "type": "Feature", "properties": { "basename": "FORT BENJAMIN HARRISON", "branch": "Army", "state":"Indiana", "Longitude": -86.020938000, "Latitude": 39.865032000 }, "geometry": { "type": "Point", "coordinates": [ -86.020938000, 39.865032000 ] } },{ "type": "Feature", "properties": { "basename": "JEFFERSON PROVING GROUND", "branch": "Army", "state":"Indiana", "Longitude": -85.416627000, "Latitude": 38.836870000 }, "geometry": { "type": "Point", "coordinates": [ -85.416627000, 38.836870000 ] } },{ "type": "Feature", "properties": { "basename": "IOWA ARMY AMMUNITION PLANT", "branch": "Army", "state":"Iowa", "Longitude": -91.265875000, "Latitude": 40.825000000 }, "geometry": { "type": "Point", "coordinates": [ -91.265875000, 40.825000000 ] } },{ "type": "Feature", "properties": { "basename": "FORT RILEY", "branch": "Army", "state":"Kansas", "Longitude": -96.810380000, "Latitude": 39.109170000 }, "geometry": { "type": "Point", "coordinates": [ -96.810380000, 39.109170000 ] } },{ "type": "Feature", "properties": { "basename": "FORT CAMPBELL", "branch": "Army", "state":"Kentucky", "Longitude": -87.496207000, "Latitude": 36.673319000 }, "geometry": { "type": "Point", "coordinates": [ -87.496207000, 36.673319000 ] } },{ "type": "Feature", "properties": { "basename": "FORT KNOX", "branch": "Army", "state":"Kentucky", "Longitude": -85.964834000, "Latitude": 37.908363000 }, "geometry": { "type": "Point", "coordinates": [ -85.964834000, 37.908363000 ] } },{ "type": "Feature", "properties": { "basename": "FORT POLK", "branch": "Army", "state":"Louisiana", "Longitude": -93.192414000, "Latitude": 31.045875000 }, "geometry": { "type": "Point", "coordinates": [ -93.192414000, 31.045875000 ] } },{ "type": "Feature", "properties": { "basename": "FORT GEORGE G MEADE", "branch": "Army", "state":"Maryland", "Longitude": -76.729180000, "Latitude": 39.097890000 }, "geometry": { "type": "Point", "coordinates": [ -76.729180000, 39.097890000 ] } },{ "type": "Feature", "properties": { "basename": "DEVENS RESERVE TRAINING FACILITY", "branch": "Army", "state":"Massachusetts", "Longitude": -71.620163000, "Latitude": 42.537029000 }, "geometry": { "type": "Point", "coordinates": [ -71.620163000, 42.537029000 ] } },{ "type": "Feature", "properties": { "basename": "SUDBURY TRAINING ANNEX", "branch": "Army", "state":"Massachusetts", "Longitude": -71.472047000, "Latitude": 42.408794000 }, "geometry": { "type": "Point", "coordinates": [ -71.472047000, 42.408794000 ] } },{ "type": "Feature", "properties": { "basename": "CAMP GRAYLING ARMY AIRFIELD", "branch": "Army", "state":"Michigan", "Longitude": -84.772570000, "Latitude": 44.634500000 }, "geometry": { "type": "Point", "coordinates": [ -84.772570000, 44.634500000 ] } },{ "type": "Feature", "properties": { "basename": "FORT LEONARD WOOD", "branch": "Army", "state":"Missouri", "Longitude": -92.154410000, "Latitude": 37.722870000 }, "geometry": { "type": "Point", "coordinates": [ -92.154410000, 37.722870000 ] } },{ "type": "Feature", "properties": { "basename": "FORT WILLIAM HENRY HARRISON", "branch": "Army", "state":"Montana", "Longitude": -112.108661000, "Latitude": 46.625454000 }, "geometry": { "type": "Point", "coordinates": [ -112.108661000, 46.625454000 ] } },{ "type": "Feature", "properties": { "basename": "HAWTHORNE ARMY DEPOT", "branch": "Army", "state":"Nevada", "Longitude": -118.659211000, "Latitude": 38.578515000 }, "geometry": { "type": "Point", "coordinates": [ -118.659211000, 38.578515000 ] } },{ "type": "Feature", "properties": { "basename": "FORT WINGATE DEPOT ACTIVITY", "branch": "Army", "state":"New Mexico", "Longitude": -108.542064000, "Latitude": 35.472067000 }, "geometry": { "type": "Point", "coordinates": [ -108.542064000, 35.472067000 ] } },{ "type": "Feature", "properties": { "basename": "WHITE SANDS MISSILE RANGE", "branch": "Army", "state":"New Mexico", "Longitude": -106.419100000, "Latitude": 32.941950000 }, "geometry": { "type": "Point", "coordinates": [ -106.419100000, 32.941950000 ] } },{ "type": "Feature", "properties": { "basename": "FORT DRUM", "branch": "Army", "state":"New York", "Longitude": -75.795660000, "Latitude": 44.050640000 }, "geometry": { "type": "Point", "coordinates": [ -75.795660000, 44.050640000 ] } },{ "type": "Feature", "properties": { "basename": "SENECA ARMY DEPOT ACTIVITY", "branch": "Army", "state":"New York", "Longitude": -76.860570000, "Latitude": 42.735030000 }, "geometry": { "type": "Point", "coordinates": [ -76.860570000, 42.735030000 ] } },{ "type": "Feature", "properties": { "basename": "FORT BRAGG", "branch": "Army", "state":"North Carolina", "Longitude": -78.997820000, "Latitude": 35.142380000 }, "geometry": { "type": "Point", "coordinates": [ -78.997820000, 35.142380000 ] } },{ "type": "Feature", "properties": { "basename": "MILITARY OCEAN TERMINAL SUNNY POINT", "branch": "Army", "state":"North Carolina", "Longitude": -77.975979000, "Latitude": 34.007135000 }, "geometry": { "type": "Point", "coordinates": [ -77.975979000, 34.007135000 ] } },{ "type": "Feature", "properties": { "basename": "FORT SILL", "branch": "Army", "state":"Oklahoma", "Longitude": -98.416931000, "Latitude": 34.578394000 }, "geometry": { "type": "Point", "coordinates": [ -98.416931000, 34.578394000 ] } },{ "type": "Feature", "properties": { "basename": "UMATILLA CHEMICAL DEPOT", "branch": "Army", "state":"Oregon", "Longitude": -119.447335000, "Latitude": 45.838032000 }, "geometry": { "type": "Point", "coordinates": [ -119.447335000, 45.838032000 ] } },{ "type": "Feature", "properties": { "basename": "FORT INDIANTOWN GAP", "branch": "Army", "state":"Pennsylvania", "Longitude": -76.568158000, "Latitude": 40.438078000 }, "geometry": { "type": "Point", "coordinates": [ -76.568158000, 40.438078000 ] } },{ "type": "Feature", "properties": { "basename": "LETTERKENNY ARMY DEPOT", "branch": "Army", "state":"Pennsylvania", "Longitude": -77.631640000, "Latitude": 40.000400000 }, "geometry": { "type": "Point", "coordinates": [ -77.631640000, 40.000400000 ] } },{ "type": "Feature", "properties": { "basename": "NORTH PENN US ARMY RESERVE COMMAND", "branch": "Army", "state":"Pennsylvania", "Longitude": -75.339900000, "Latitude": 40.121500000 }, "geometry": { "type": "Point", "coordinates": [ -75.339900000, 40.121500000 ] } },{ "type": "Feature", "properties": { "basename": "TOBYHANNA ARMY DEPOT", "branch": "Army", "state":"Pennsylvania", "Longitude": -75.424806000, "Latitude": 41.194249000 }, "geometry": { "type": "Point", "coordinates": [ -75.424806000, 41.194249000 ] } },{ "type": "Feature", "properties": { "basename": "FORT BLISS", "branch": "Army", "state":"Texas", "Longitude": -106.412579000, "Latitude": 31.799151000 }, "geometry": { "type": "Point", "coordinates": [ -106.412579000, 31.799151000 ] } },{ "type": "Feature", "properties": { "basename": "FORT HOOD", "branch": "Army", "state":"Texas", "Longitude": -97.720394000, "Latitude": 31.141490000 }, "geometry": { "type": "Point", "coordinates": [ -97.720394000, 31.141490000 ] } },{ "type": "Feature", "properties": { "basename": "DUGWAY PROVING GROUND", "branch": "Army", "state":"Utah", "Longitude": -112.745941000, "Latitude": 40.218714000 }, "geometry": { "type": "Point", "coordinates": [ -112.745941000, 40.218714000 ] } },{ "type": "Feature", "properties": { "basename": "GREEN RIVER TEST SITE", "branch": "Army", "state":"Utah", "Longitude": -110.075300000, "Latitude": 38.941300000 }, "geometry": { "type": "Point", "coordinates": [ -110.075300000, 38.941300000 ] } },{ "type": "Feature", "properties": { "basename": "FORT BELVOIR", "branch": "Army", "state":"Virginia", "Longitude": -77.145885000, "Latitude": 38.701528000 }, "geometry": { "type": "Point", "coordinates": [ -77.145885000, 38.701528000 ] } },{ "type": "Feature", "properties": { "basename": "FORT LEE", "branch": "Army", "state":"Virginia", "Longitude": -77.338907000, "Latitude": 37.264822000 }, "geometry": { "type": "Point", "coordinates": [ -77.338907000, 37.264822000 ] } },{ "type": "Feature", "properties": { "basename": "FORT MONROE", "branch": "Army", "state":"Virginia", "Longitude": -76.306835000, "Latitude": 37.008432000 }, "geometry": { "type": "Point", "coordinates": [ -76.306835000, 37.008432000 ] } },{ "type": "Feature", "properties": { "basename": "FORT PICKETT", "branch": "Army", "state":"Virginia", "Longitude": -77.959696000, "Latitude": 37.073398000 }, "geometry": { "type": "Point", "coordinates": [ -77.959696000, 37.073398000 ] } },{ "type": "Feature", "properties": { "basename": "VINT HILL FARMS STATION", "branch": "Army", "state":"Virginia", "Longitude": -77.672000000, "Latitude": 38.748000000 }, "geometry": { "type": "Point", "coordinates": [ -77.672000000, 38.748000000 ] } },{ "type": "Feature", "properties": { "basename": "JOINT BASE LEWIS-MCCHORD", "branch": "Army", "state":"Washington", "Longitude": -122.478436000, "Latitude": 47.129441000 }, "geometry": { "type": "Point", "coordinates": [ -122.478436000, 47.129441000 ] } },{ "type": "Feature", "properties": { "basename": "YAKIMA TRAINING CENTER", "branch": "Army", "state":"Washington", "Longitude": -120.356986000, "Latitude": 46.682467000 }, "geometry": { "type": "Point", "coordinates": [ -120.356986000, 46.682467000 ] } },{ "type": "Feature", "properties": { "basename": "FORT MCCOY", "branch": "Army", "state":"Wisconsin", "Longitude": -90.684990000, "Latitude": 44.014930000 }, "geometry": { "type": "Point", "coordinates": [ -90.684990000, 44.014930000 ] } },{ "type": "Feature", "properties": { "basename": "ADAK NAVAL AIR STATION", "branch": "Navy", "state":"Alaska", "Longitude": -176.646111000, "Latitude": 51.878056000 }, "geometry": { "type": "Point", "coordinates": [ -176.646111000, 51.878056000 ] } },{ "type": "Feature", "properties": { "basename": "YUMA MARINE CORP AIR STATION", "branch": "Navy", "state":"Arizona", "Longitude": -114.627690000, "Latitude": 32.692650000 }, "geometry": { "type": "Point", "coordinates": [ -114.627690000, 32.692650000 ] } },{ "type": "Feature", "properties": { "basename": "ALAMEDA NAVAL AIR STATION", "branch": "Navy", "state":"California", "Longitude": -122.241640000, "Latitude": 37.765210000 }, "geometry": { "type": "Point", "coordinates": [ -122.241640000, 37.765210000 ] } },{ "type": "Feature", "properties": { "basename": "CAMP PENDLETON MARINE CORP BASE", "branch": "Navy", "state":"California", "Longitude": -117.320999100, "Latitude": 33.317798610 }, "geometry": { "type": "Point", "coordinates": [ -117.320999100, 33.317798610 ] } },{ "type": "Feature", "properties": { "basename": "CHINA LAKE NAVAL AIR WEAPONS STATION", "branch": "Navy", "state":"California", "Longitude": -117.657440000, "Latitude": 35.655170000 }, "geometry": { "type": "Point", "coordinates": [ -117.657440000, 35.655170000 ] } },{ "type": "Feature", "properties": { "basename": "CROWS LANDING NAVAL AUXILLIARY LANDING FIELD", "branch": "Navy", "state":"California", "Longitude": -121.109123000, "Latitude": 37.406864000 }, "geometry": { "type": "Point", "coordinates": [ -121.109123000, 37.406864000 ] } },{ "type": "Feature", "properties": { "basename": "EL CENTRO NAVAL AIR FIELD", "branch": "Navy", "state":"California", "Longitude": -115.662971000, "Latitude": 32.820229000 }, "geometry": { "type": "Point", "coordinates": [ -115.662971000, 32.820229000 ] } },{ "type": "Feature", "properties": { "basename": "EL TORO MARINE CORP AIR STATION", "branch": "Navy", "state":"California", "Longitude": -117.725630000, "Latitude": 33.667570000 }, "geometry": { "type": "Point", "coordinates": [ -117.725630000, 33.667570000 ] } },{ "type": "Feature", "properties": { "basename": "IMPERIAL BEACH OUTLYING LANDING FIELD", "branch": "Navy", "state":"California", "Longitude": -117.111667000, "Latitude": 32.563333000 }, "geometry": { "type": "Point", "coordinates": [ -117.111667000, 32.563333000 ] } },{ "type": "Feature", "properties": { "basename": "LEMOORE NAVAL AIR STATION", "branch": "Navy", "state":"California", "Longitude": -119.910199000, "Latitude": 36.261151000 }, "geometry": { "type": "Point", "coordinates": [ -119.910199000, 36.261151000 ] } },{ "type": "Feature", "properties": { "basename": "LONG BEACH NAVAL STATION SAN PEDRO", "branch": "Navy", "state":"California", "Longitude": -118.231111000, "Latitude": 33.757222000 }, "geometry": { "type": "Point", "coordinates": [ -118.231111000, 33.757222000 ] } },{ "type": "Feature", "properties": { "basename": "MIRAMAR MARINE CORP AIR STATION", "branch": "Navy", "state":"California", "Longitude": -117.142516000, "Latitude": 32.871825000 }, "geometry": { "type": "Point", "coordinates": [ -117.142516000, 32.871825000 ] } },{ "type": "Feature", "properties": { "basename": "MOFFETT FIELD NAVAL AIR STATION", "branch": "Navy", "state":"California", "Longitude": -122.050852000, "Latitude": 37.410921000 }, "geometry": { "type": "Point", "coordinates": [ -122.050852000, 37.410921000 ] } },{ "type": "Feature", "properties": { "basename": "POINT MUGU NAVAL AIR WEAPONS STATION", "branch": "Navy", "state":"California", "Longitude": -119.099720000, "Latitude": 34.111797000 }, "geometry": { "type": "Point", "coordinates": [ -119.099720000, 34.111797000 ] } },{ "type": "Feature", "properties": { "basename": "SAN CLEMENTE ISLAND NAVAL AUXILLIARY LANDING FIELD", "branch": "Navy", "state":"California", "Longitude": -118.584899000, "Latitude": 33.020577000 }, "geometry": { "type": "Point", "coordinates": [ -118.584899000, 33.020577000 ] } },{ "type": "Feature", "properties": { "basename": "SAN DIEGO FLEET ANTI-SUBMARINE TRAINING CENTER", "branch": "Navy", "state":"California", "Longitude": -117.218197000, "Latitude": 32.725406000 }, "geometry": { "type": "Point", "coordinates": [ -117.218197000, 32.725406000 ] } },{ "type": "Feature", "properties": { "basename": "SAN DIEGONAVAL STATION", "branch": "Navy", "state":"California", "Longitude": -117.218197000, "Latitude": 32.725406000 }, "geometry": { "type": "Point", "coordinates": [ -117.218197000, 32.725406000 ] } },{ "type": "Feature", "properties": { "basename": "SAN DIEGO NAVAL TRAINING CENTER", "branch": "Navy", "state":"California", "Longitude": -117.218197000, "Latitude": 32.725406000 }, "geometry": { "type": "Point", "coordinates": [ -117.218197000, 32.725406000 ] } },{ "type": "Feature", "properties": { "basename": "SAN NICOLAS ISLAND OUTLYING LANDING FIELD", "branch": "Navy", "state":"California", "Longitude": -119.463333000, "Latitude": 33.241557000 }, "geometry": { "type": "Point", "coordinates": [ -119.463333000, 33.241557000 ] } },{ "type": "Feature", "properties": { "basename": "SEAL BEACH NAVAL AIR WEAPONS STATION", "branch": "Navy", "state":"California", "Longitude": -118.104770000, "Latitude": 33.741410000 }, "geometry": { "type": "Point", "coordinates": [ -118.104770000, 33.741410000 ] } },{ "type": "Feature", "properties": { "basename": "STOCKTON NAVAL COMMAND STATION", "branch": "Navy", "state":"California", "Longitude": -121.359369000, "Latitude": 37.950756000 }, "geometry": { "type": "Point", "coordinates": [ -121.359369000, 37.950756000 ] } },{ "type": "Feature", "properties": { "basename": "TREASURE ISLANDNAVAL STATION", "branch": "Navy", "state":"California", "Longitude": -122.370650000, "Latitude": 37.823550000 }, "geometry": { "type": "Point", "coordinates": [ -122.370650000, 37.823550000 ] } },{ "type": "Feature", "properties": { "basename": "TUSTIN MARINE CORP AIR STATION", "branch": "Navy", "state":"California", "Longitude": -117.823640000, "Latitude": 33.742000000 }, "geometry": { "type": "Point", "coordinates": [ -117.823640000, 33.742000000 ] } },{ "type": "Feature", "properties": { "basename": "TWENTYNINE PALMS MCAGCC", "branch": "Navy", "state":"California", "Longitude": -116.054170000, "Latitude": 34.135560000 }, "geometry": { "type": "Point", "coordinates": [ -116.054170000, 34.135560000 ] } },{ "type": "Feature", "properties": { "basename": "BLOOMFIELD NAVAL WEAPONS INDUSTRIAL RESERVE PLANT", "branch": "Navy", "state":"Connecticut", "Longitude": -72.708111000, "Latitude": 41.870073000 }, "geometry": { "type": "Point", "coordinates": [ -72.708111000, 41.870073000 ] } },{ "type": "Feature", "properties": { "basename": "ANACOSTIA NAVAL STATION", "branch": "Navy", "state":"District of Columbia", "Longitude": -77.012544000, "Latitude": 38.847102000 }, "geometry": { "type": "Point", "coordinates": [ -77.012544000, 38.847102000 ] } },{ "type": "Feature", "properties": { "basename": "CECIL FIELDNAVAL AIR STATION", "branch": "Navy", "state":"Florida", "Longitude": -81.882948000, "Latitude": 30.220866000 }, "geometry": { "type": "Point", "coordinates": [ -81.882948000, 30.220866000 ] } },{ "type": "Feature", "properties": { "basename": "JACKSONVILLENAVAL AIR STATION", "branch": "Navy", "state":"Florida", "Longitude": -81.680600000, "Latitude": 30.224300000 }, "geometry": { "type": "Point", "coordinates": [ -81.680600000, 30.224300000 ] } },{ "type": "Feature", "properties": { "basename": "KEY WESTNAVAL AIR STATION", "branch": "Navy", "state":"Florida", "Longitude": -81.774440000, "Latitude": 24.578507000 }, "geometry": { "type": "Point", "coordinates": [ -81.774440000, 24.578507000 ] } },{ "type": "Feature", "properties": { "basename": "MAYPORTNAVAL STATION", "branch": "Navy", "state":"Florida", "Longitude": -81.407750000, "Latitude": 30.388797000 }, "geometry": { "type": "Point", "coordinates": [ -81.407750000, 30.388797000 ] } },{ "type": "Feature", "properties": { "basename": "PANAMA CITY COASTAL SYSTEMS STATION", "branch": "Navy", "state":"Florida", "Longitude": -85.752542000, "Latitude": 30.175021000 }, "geometry": { "type": "Point", "coordinates": [ -85.752542000, 30.175021000 ] } },{ "type": "Feature", "properties": { "basename": "PENSACOLANAVAL AIR STATION", "branch": "Navy", "state":"Florida", "Longitude": -87.288550000, "Latitude": 30.355180000 }, "geometry": { "type": "Point", "coordinates": [ -87.288550000, 30.355180000 ] } },{ "type": "Feature", "properties": { "basename": "SAUFLEY FIELDNAVAL AIR STATION", "branch": "Navy", "state":"Florida", "Longitude": -87.340970000, "Latitude": 30.469570000 }, "geometry": { "type": "Point", "coordinates": [ -87.340970000, 30.469570000 ] } },{ "type": "Feature", "properties": { "basename": "WHITING FIELDNAVAL AIR STATION", "branch": "Navy", "state":"Florida", "Longitude": -87.018580000, "Latitude": 30.714000000 }, "geometry": { "type": "Point", "coordinates": [ -87.018580000, 30.714000000 ] } },{ "type": "Feature", "properties": { "basename": "KINGS BAY NAVAL STATION B", "branch": "Navy", "state":"Georgia", "Longitude": -81.551147000, "Latitude": 30.797548000 }, "geometry": { "type": "Point", "coordinates": [ -81.551147000, 30.797548000 ] } },{ "type": "Feature", "properties": { "basename": "BAIR RESREVE BASEERS POINTNAVAL AIR STATION", "branch": "Navy", "state":"Hawaii", "Longitude": -158.071763000, "Latitude": 21.305767000 }, "geometry": { "type": "Point", "coordinates": [ -158.071763000, 21.305767000 ] } },{ "type": "Feature", "properties": { "basename": "BARKING SANDS PACIFIC MISSILE RANGE FACILITY", "branch": "Navy", "state":"Hawaii", "Longitude": -159.782580000, "Latitude": 22.035466000 }, "geometry": { "type": "Point", "coordinates": [ -159.782580000, 22.035466000 ] } },{ "type": "Feature", "properties": { "basename": "KANEOHE BAY MARINE CORP BASE", "branch": "Navy", "state":"Hawaii", "Longitude": -157.767765000, "Latitude": 21.449989000 }, "geometry": { "type": "Point", "coordinates": [ -157.767765000, 21.449989000 ] } },{ "type": "Feature", "properties": { "basename": "PEARL HAIR RESREVE BASEORNAVAL STATION", "branch": "Navy", "state":"Hawaii", "Longitude": -157.954186000, "Latitude": 21.352954000 }, "geometry": { "type": "Point", "coordinates": [ -157.954186000, 21.352954000 ] } },{ "type": "Feature", "properties": { "basename": "GLENVIEWNAVAL AIR STATION", "branch": "Navy", "state":"Illinois", "Longitude": -87.815182000, "Latitude": 42.091644000 }, "geometry": { "type": "Point", "coordinates": [ -87.815182000, 42.091644000 ] } },{ "type": "Feature", "properties": { "basename": "NEW ORLEANSNAVAL AIR STATION", "branch": "Navy", "state":"Louisiana", "Longitude": -90.036043000, "Latitude": 29.822297000 }, "geometry": { "type": "Point", "coordinates": [ -90.036043000, 29.822297000 ] } },{ "type": "Feature", "properties": { "basename": "BRUNSWICKNAVAL AIR STATION", "branch": "Navy", "state":"Maine", "Longitude": -69.931930000, "Latitude": 43.901650000 }, "geometry": { "type": "Point", "coordinates": [ -69.931930000, 43.901650000 ] } },{ "type": "Feature", "properties": { "basename": "CUTLER NAVAL COMPUTER AND TELECOMMUNICATIONS STATION", "branch": "Navy", "state":"Maine", "Longitude": -67.203870000, "Latitude": 44.657580000 }, "geometry": { "type": "Point", "coordinates": [ -67.203870000, 44.657580000 ] } },{ "type": "Feature", "properties": { "basename": "BAINBRIDGE NAVAL TRAINING CENTER", "branch": "Navy", "state":"Maryland", "Longitude": -76.099599000, "Latitude": 39.605757000 }, "geometry": { "type": "Point", "coordinates": [ -76.099599000, 39.605757000 ] } },{ "type": "Feature", "properties": { "basename": "SOUTH WEYMOUTHNAVAL AIR STATION", "branch": "Navy", "state":"Massachusetts", "Longitude": -70.945320000, "Latitude": 42.104820000 }, "geometry": { "type": "Point", "coordinates": [ -70.945320000, 42.104820000 ] } },{ "type": "Feature", "properties": { "basename": "GULFPORT NAVAL CONSTRUCTION BATTALION CENTER", "branch": "Navy", "state":"Mississippi", "Longitude": -89.092820000, "Latitude": 30.367420000 }, "geometry": { "type": "Point", "coordinates": [ -89.092820000, 30.367420000 ] } },{ "type": "Feature", "properties": { "basename": "MERIDIANNAVAL AIR STATION", "branch": "Navy", "state":"Mississippi", "Longitude": -88.571030000, "Latitude": 32.557470000 }, "geometry": { "type": "Point", "coordinates": [ -88.571030000, 32.557470000 ] } },{ "type": "Feature", "properties": { "basename": "FALLONNAVAL AIR STATION", "branch": "Navy", "state":"Nevada", "Longitude": -118.721494000, "Latitude": 39.420692000 }, "geometry": { "type": "Point", "coordinates": [ -118.721494000, 39.420692000 ] } },{ "type": "Feature", "properties": { "basename": "COLTS NECK NAVAL AIR WEAPONS STATION EARLE", "branch": "Navy", "state":"New Jersey", "Longitude": -74.172370000, "Latitude": 40.287610000 }, "geometry": { "type": "Point", "coordinates": [ -74.172370000, 40.287610000 ] } },{ "type": "Feature", "properties": { "basename": "TRENTON NAVAL AIR WARFARE CENTER", "branch": "Navy", "state":"New Jersey", "Longitude": -74.759720000, "Latitude": 40.220580000 }, "geometry": { "type": "Point", "coordinates": [ -74.759720000, 40.220580000 ] } },{ "type": "Feature", "properties": { "basename": "CALVERTON NAVAL WEAPONS INDUSTRIAL RESERVE PLANT", "branch": "Navy", "state":"New York", "Longitude": -72.662040000, "Latitude": 40.917040000 }, "geometry": { "type": "Point", "coordinates": [ -72.662040000, 40.917040000 ] } },{ "type": "Feature", "properties": { "basename": "CAMP LEJEUNE MARINE CORP BASE", "branch": "Navy", "state":"North Carolina", "Longitude": -77.402740000, "Latitude": 34.629312000 }, "geometry": { "type": "Point", "coordinates": [ -77.402740000, 34.629312000 ] } },{ "type": "Feature", "properties": { "basename": "CHERRY POINT MARINE CORP AIR STATION", "branch": "Navy", "state":"North Carolina", "Longitude": -76.881904000, "Latitude": 34.902642000 }, "geometry": { "type": "Point", "coordinates": [ -76.881904000, 34.902642000 ] } },{ "type": "Feature", "properties": { "basename": "PHILADELPHIANAVAL STATION", "branch": "Navy", "state":"Pennsylvania", "Longitude": -75.169705000, "Latitude": 39.892452000 }, "geometry": { "type": "Point", "coordinates": [ -75.169705000, 39.892452000 ] } },{ "type": "Feature", "properties": { "basename": "WARMINSTER NAWC", "branch": "Navy", "state":"Pennsylvania", "Longitude": -75.099800110, "Latitude": 40.206798550 }, "geometry": { "type": "Point", "coordinates": [ -75.099800110, 40.206798550 ] } },{ "type": "Feature", "properties": { "basename": "WILLOW GROVENAVAL AIR STATION", "branch": "Navy", "state":"Pennsylvania", "Longitude": -75.140240000, "Latitude": 40.205810000 }, "geometry": { "type": "Point", "coordinates": [ -75.140240000, 40.205810000 ] } },{ "type": "Feature", "properties": { "basename": "DAVISVILLE NAVAL CONSTRUCTION BATTALION CENTER", "branch": "Navy", "state":"Rhode Island", "Longitude": -71.440414000, "Latitude": 41.605397000 }, "geometry": { "type": "Point", "coordinates": [ -71.440414000, 41.605397000 ] } },{ "type": "Feature", "properties": { "basename": "NEWPORT NETC", "branch": "Navy", "state":"Rhode Island", "Longitude": -71.312830000, "Latitude": 41.490100000 }, "geometry": { "type": "Point", "coordinates": [ -71.312830000, 41.490100000 ] } },{ "type": "Feature", "properties": { "basename": "BEAUFORT MARINE CORP AIR STATION", "branch": "Navy", "state":"South Carolina", "Longitude": -80.717384000, "Latitude": 32.475688000 }, "geometry": { "type": "Point", "coordinates": [ -80.717384000, 32.475688000 ] } },{ "type": "Feature", "properties": { "basename": "CHARLESTONNAVAL STATION", "branch": "Navy", "state":"South Carolina", "Longitude": -80.069150000, "Latitude": 32.890980000 }, "geometry": { "type": "Point", "coordinates": [ -80.069150000, 32.890980000 ] } },{ "type": "Feature", "properties": { "basename": "PARRIS ISLAND MARINE CORPS RECRUIT DEPOT", "branch": "Navy", "state":"South Carolina", "Longitude": -80.680256000, "Latitude": 32.320067000 }, "geometry": { "type": "Point", "coordinates": [ -80.680256000, 32.320067000 ] } },{ "type": "Feature", "properties": { "basename": "MEMPHISNAVAL AIR STATION", "branch": "Navy", "state":"Tennessee", "Longitude": -89.897310000, "Latitude": 35.341470000 }, "geometry": { "type": "Point", "coordinates": [ -89.897310000, 35.341470000 ] } },{ "type": "Feature", "properties": { "basename": "CHASE FIELDNAVAL AIR STATION", "branch": "Navy", "state":"Texas", "Longitude": -97.660211000, "Latitude": 28.361282000 }, "geometry": { "type": "Point", "coordinates": [ -97.660211000, 28.361282000 ] } },{ "type": "Feature", "properties": { "basename": "CORPUS CHRISTINAVAL AIR STATION", "branch": "Navy", "state":"Texas", "Longitude": -97.660211000, "Latitude": 28.361282000 }, "geometry": { "type": "Point", "coordinates": [ -97.660211000, 28.361282000 ] } },{ "type": "Feature", "properties": { "basename": "DALLASNAVAL AIR STATION", "branch": "Navy", "state":"Texas", "Longitude": -96.796990000, "Latitude": 32.776660000 }, "geometry": { "type": "Point", "coordinates": [ -96.796990000, 32.776660000 ] } },{ "type": "Feature", "properties": { "basename": "FT WORTH TX NAVAL AIR STATIONJRB", "branch": "Navy", "state":"Texas", "Longitude": -97.427163000, "Latitude": 32.769891000 }, "geometry": { "type": "Point", "coordinates": [ -97.427163000, 32.769891000 ] } },{ "type": "Feature", "properties": { "basename": "KINGSVILLENAVAL AIR STATION", "branch": "Navy", "state":"Texas", "Longitude": -97.809709000, "Latitude": 27.505251000 }, "geometry": { "type": "Point", "coordinates": [ -97.809709000, 27.505251000 ] } },{ "type": "Feature", "properties": { "basename": "CRANEY ISLAND FLEET INDUSTRIAL SUPPLY CENTER", "branch": "Navy", "state":"Virginia", "Longitude": -76.358748000, "Latitude": 36.891512000 }, "geometry": { "type": "Point", "coordinates": [ -76.358748000, 36.891512000 ] } },{ "type": "Feature", "properties": { "basename": "LITTLE CREEK NAVAL AIR BASE", "branch": "Navy", "state":"Virginia", "Longitude": -76.186791000, "Latitude": 36.914433000 }, "geometry": { "type": "Point", "coordinates": [ -76.186791000, 36.914433000 ] } },{ "type": "Feature", "properties": { "basename": "NORFOLK COMNAVBASE", "branch": "Navy", "state":"Virginia", "Longitude": -76.285870000, "Latitude": 36.850770000 }, "geometry": { "type": "Point", "coordinates": [ -76.285870000, 36.850770000 ] } },{ "type": "Feature", "properties": { "basename": "OCEANANAVAL AIR STATION", "branch": "Navy", "state":"Virginia", "Longitude": -76.137540000, "Latitude": 36.893010000 }, "geometry": { "type": "Point", "coordinates": [ -76.137540000, 36.893010000 ] } },{ "type": "Feature", "properties": { "basename": "QUANTICO MARINE CORPS BASE", "branch": "Navy", "state":"Virginia", "Longitude": -77.304832000, "Latitude": 38.503018000 }, "geometry": { "type": "Point", "coordinates": [ -77.304832000, 38.503018000 ] } },{ "type": "Feature", "properties": { "basename": "ST JULIEN'S CREEK ANNEX", "branch": "Navy", "state":"Virginia", "Longitude": -76.322981000, "Latitude": 36.793357000 }, "geometry": { "type": "Point", "coordinates": [ -76.322981000, 36.793357000 ] } },{ "type": "Feature", "properties": { "basename": "YORKTOWN NAVAL AIR WEAPONS STATION", "branch": "Navy", "state":"Virginia", "Longitude": -76.547406000, "Latitude": 37.237662000 }, "geometry": { "type": "Point", "coordinates": [ -76.547406000, 37.237662000 ] } },{ "type": "Feature", "properties": { "basename": "WHIDBEY ISLANDNAVAL AIR STATION", "branch": "Navy", "state":"Washington", "Longitude": -122.667690000, "Latitude": 48.344130000 }, "geometry": { "type": "Point", "coordinates": [ -122.667690000, 48.344130000 ] } },{ "type": "Feature", "properties": { "basename": "MAXWELL", "branch": "Air Force", "state":"Alabama", "Longitude": -86.362560000, "Latitude": 32.379120000 }, "geometry": { "type": "Point", "coordinates": [ -86.362560000, 32.379120000 ] } },{ "type": "Feature", "properties": { "basename": "CLEAR AIR FORCE STATION", "branch": "Air Force", "state":"Alaska", "Longitude": -149.148920000, "Latitude": 64.303710000 }, "geometry": { "type": "Point", "coordinates": [ -149.148920000, 64.303710000 ] } },{ "type": "Feature", "properties": { "basename": "EARECKSON AIR FORCE BASE", "branch": "Air Force", "state":"Alaska", "Longitude": 174.103616000, "Latitude": 52.720817000 }, "geometry": { "type": "Point", "coordinates": [ 174.103616000, 52.720817000 ] } },{ "type": "Feature", "properties": { "basename": "EIELSON AIR FORCE BASE", "branch": "Air Force", "state":"Alaska", "Longitude": -147.063820000, "Latitude": 64.643100000 }, "geometry": { "type": "Point", "coordinates": [ -147.063820000, 64.643100000 ] } },{ "type": "Feature", "properties": { "basename": "GALENA FORWARD OPERATING LOCATION", "branch": "Air Force", "state":"Alaska", "Longitude": -156.952620000, "Latitude": 64.737030000 }, "geometry": { "type": "Point", "coordinates": [ -156.952620000, 64.737030000 ] } },{ "type": "Feature", "properties": { "basename": "JBER-ELMENDORF", "branch": "Air Force", "state":"Alaska", "Longitude": -149.811250000, "Latitude": 61.253640000 }, "geometry": { "type": "Point", "coordinates": [ -149.811250000, 61.253640000 ] } },{ "type": "Feature", "properties": { "basename": "JBER-RICHARDSON", "branch": "Air Force", "state":"Alaska", "Longitude": -149.691730000, "Latitude": 61.253760000 }, "geometry": { "type": "Point", "coordinates": [ -149.691730000, 61.253760000 ] } },{ "type": "Feature", "properties": { "basename": "KING SALMON", "branch": "Air Force", "state":"Alaska", "Longitude": -156.653998000, "Latitude": 58.678968000 }, "geometry": { "type": "Point", "coordinates": [ -156.653998000, 58.678968000 ] } },{ "type": "Feature", "properties": { "basename": "TED STEVENS INTERNATIONAL AIRPORT", "branch": "Air Force", "state":"Alaska", "Longitude": -150.006825000, "Latitude": 61.192964000 }, "geometry": { "type": "Point", "coordinates": [ -150.006825000, 61.192964000 ] } },{ "type": "Feature", "properties": { "basename": "AFRL MESA", "branch": "Air Force", "state":"Arizona", "Longitude": -111.671693000, "Latitude": 33.306559000 }, "geometry": { "type": "Point", "coordinates": [ -111.671693000, 33.306559000 ] } },{ "type": "Feature", "properties": { "basename": "AIR FORCE PLANT 44", "branch": "Air Force", "state":"Arizona", "Longitude": -110.953310000, "Latitude": 32.107940000 }, "geometry": { "type": "Point", "coordinates": [ -110.953310000, 32.107940000 ] } },{ "type": "Feature", "properties": { "basename": "DAVIS-MONTHAN AIR FORCE BASE", "branch": "Air Force", "state":"Arizona", "Longitude": -110.859260000, "Latitude": 32.167550000 }, "geometry": { "type": "Point", "coordinates": [ -110.859260000, 32.167550000 ] } },{ "type": "Feature", "properties": { "basename": "GOLDWATER RANGE", "branch": "Air Force", "state":"Arizona", "Longitude": -113.473065000, "Latitude": 32.661936000 }, "geometry": { "type": "Point", "coordinates": [ -113.473065000, 32.661936000 ] } },{ "type": "Feature", "properties": { "basename": "LUKE", "branch": "Air Force", "state":"Arizona", "Longitude": -112.375500000, "Latitude": 33.541490000 }, "geometry": { "type": "Point", "coordinates": [ -112.375500000, 33.541490000 ] } },{ "type": "Feature", "properties": { "basename": "TUCSON INTERNATIONAL AIRPORT", "branch": "Air Force", "state":"Arizona", "Longitude": -110.939230000, "Latitude": 32.114510000 }, "geometry": { "type": "Point", "coordinates": [ -110.939230000, 32.114510000 ] } },{ "type": "Feature", "properties": { "basename": "WILLIAMS AIR FORCE BASE", "branch": "Air Force", "state":"Arizona", "Longitude": -111.681280000, "Latitude": 33.310093000 }, "geometry": { "type": "Point", "coordinates": [ -111.681280000, 33.310093000 ] } },{ "type": "Feature", "properties": { "basename": "EAKER AIR FORCE BASE", "branch": "Air Force", "state":"Arkansas", "Longitude": -89.943270000, "Latitude": 35.964600000 }, "geometry": { "type": "Point", "coordinates": [ -89.943270000, 35.964600000 ] } },{ "type": "Feature", "properties": { "basename": "FT SMITH", "branch": "Air Force", "state":"Arkansas", "Longitude": -94.363510000, "Latitude": 35.338070000 }, "geometry": { "type": "Point", "coordinates": [ -94.363510000, 35.338070000 ] } },{ "type": "Feature", "properties": { "basename": "LITTLE ROCK AIR FORCE BASE", "branch": "Air Force", "state":"Arkansas", "Longitude": -92.138028000, "Latitude": 34.906043000 }, "geometry": { "type": "Point", "coordinates": [ -92.138028000, 34.906043000 ] } },{ "type": "Feature", "properties": { "basename": "AF PLANT NO 42 - B", "branch": "Air Force", "state":"California", "Longitude": -118.084444000, "Latitude": 34.629444000 }, "geometry": { "type": "Point", "coordinates": [ -118.084444000, 34.629444000 ] } },{ "type": "Feature", "properties": { "basename": "BEALE", "branch": "Air Force", "state":"California", "Longitude": -121.359880000, "Latitude": 39.111500000 }, "geometry": { "type": "Point", "coordinates": [ -121.359880000, 39.111500000 ] } },{ "type": "Feature", "properties": { "basename": "CASTLE AIR FORCE BASE", "branch": "Air Force", "state":"California", "Longitude": -120.577910000, "Latitude": 37.364830000 }, "geometry": { "type": "Point", "coordinates": [ -120.577910000, 37.364830000 ] } },{ "type": "Feature", "properties": { "basename": "EDWARDS AIR FORCE BASE", "branch": "Air Force", "state":"California", "Longitude": -117.891210000, "Latitude": 34.924030000 }, "geometry": { "type": "Point", "coordinates": [ -117.891210000, 34.924030000 ] } },{ "type": "Feature", "properties": { "basename": "FRESNO", "branch": "Air Force", "state":"California", "Longitude": -119.704219000, "Latitude": 36.768154000 }, "geometry": { "type": "Point", "coordinates": [ -119.704219000, 36.768154000 ] } },{ "type": "Feature", "properties": { "basename": "GEORGE AIR FORCE BASE", "branch": "Air Force", "state":"California", "Longitude": -117.371400000, "Latitude": 34.589060000 }, "geometry": { "type": "Point", "coordinates": [ -117.371400000, 34.589060000 ] } },{ "type": "Feature", "properties": { "basename": "MARCH", "branch": "Air Force", "state":"California", "Longitude": -117.261730000, "Latitude": 33.890880000 }, "geometry": { "type": "Point", "coordinates": [ -117.261730000, 33.890880000 ] } },{ "type": "Feature", "properties": { "basename": "MATHER AIR FORCE BASE", "branch": "Air Force", "state":"California", "Longitude": -121.297210000, "Latitude": 38.563660000 }, "geometry": { "type": "Point", "coordinates": [ -121.297210000, 38.563660000 ] } },{ "type": "Feature", "properties": { "basename": "MCCLELLAN AIR FORCE BASE", "branch": "Air Force", "state":"California", "Longitude": -121.400510000, "Latitude": 38.660080000 }, "geometry": { "type": "Point", "coordinates": [ -121.400510000, 38.660080000 ] } },{ "type": "Feature", "properties": { "basename": "NORTON AIR FORCE BASE", "branch": "Air Force", "state":"California", "Longitude": -117.234870000, "Latitude": 34.095350000 }, "geometry": { "type": "Point", "coordinates": [ -117.234870000, 34.095350000 ] } },{ "type": "Feature", "properties": { "basename": "ONIZUKA AS", "branch": "Air Force", "state":"California", "Longitude": -122.026778000, "Latitude": 37.407597000 }, "geometry": { "type": "Point", "coordinates": [ -122.026778000, 37.407597000 ] } },{ "type": "Feature", "properties": { "basename": "ONTARIO IAP AGS", "branch": "Air Force", "state":"California", "Longitude": -117.601389000, "Latitude": 34.055556000 }, "geometry": { "type": "Point", "coordinates": [ -117.601389000, 34.055556000 ] } },{ "type": "Feature", "properties": { "basename": "TRAVIS AIR FORCE BASE", "branch": "Air Force", "state":"California", "Longitude": -121.929060000, "Latitude": 38.268400000 }, "geometry": { "type": "Point", "coordinates": [ -121.929060000, 38.268400000 ] } },{ "type": "Feature", "properties": { "basename": "VANDENBERG", "branch": "Air Force", "state":"California", "Longitude": -120.572440000, "Latitude": 34.742030000 }, "geometry": { "type": "Point", "coordinates": [ -120.572440000, 34.742030000 ] } },{ "type": "Feature", "properties": { "basename": "BUCKLEY AIR FORCE BASE", "branch": "Air Force", "state":"Colorado", "Longitude": -104.753630000, "Latitude": 39.704100000 }, "geometry": { "type": "Point", "coordinates": [ -104.753630000, 39.704100000 ] } },{ "type": "Feature", "properties": { "basename": "BUCKLEY ANNEX", "branch": "Air Force", "state":"Colorado", "Longitude": -104.749613000, "Latitude": 39.704856000 }, "geometry": { "type": "Point", "coordinates": [ -104.749613000, 39.704856000 ] } },{ "type": "Feature", "properties": { "basename": "LOWRY AIR FORCE BASE", "branch": "Air Force", "state":"Colorado", "Longitude": -104.895510000, "Latitude": 39.720890000 }, "geometry": { "type": "Point", "coordinates": [ -104.895510000, 39.720890000 ] } },{ "type": "Feature", "properties": { "basename": "PETERSON AIR FORCE BASE", "branch": "Air Force", "state":"Colorado", "Longitude": -104.700050000, "Latitude": 38.823860000 }, "geometry": { "type": "Point", "coordinates": [ -104.700050000, 38.823860000 ] } },{ "type": "Feature", "properties": { "basename": "USAF ACADEMY", "branch": "Air Force", "state":"Colorado", "Longitude": -104.861140000, "Latitude": 38.995613000 }, "geometry": { "type": "Point", "coordinates": [ -104.861140000, 38.995613000 ] } },{ "type": "Feature", "properties": { "basename": "DOVER AIR FORCE BASE", "branch": "Air Force", "state":"Delaware", "Longitude": -75.468430000, "Latitude": 39.127730000 }, "geometry": { "type": "Point", "coordinates": [ -75.468430000, 39.127730000 ] } },{ "type": "Feature", "properties": { "basename": "AVON PARK AIR FORCE RANGE DERA", "branch": "Air Force", "state":"Florida", "Longitude": -81.350930000, "Latitude": 27.652590000 }, "geometry": { "type": "Point", "coordinates": [ -81.350930000, 27.652590000 ] } },{ "type": "Feature", "properties": { "basename": "CAPE CANAVERAL AIR FORCE STATION", "branch": "Air Force", "state":"Florida", "Longitude": -80.607710000, "Latitude": 28.392220000 }, "geometry": { "type": "Point", "coordinates": [ -80.607710000, 28.392220000 ] } },{ "type": "Feature", "properties": { "basename": "EGLIN", "branch": "Air Force", "state":"Florida", "Longitude": -86.553340000, "Latitude": 30.463560000 }, "geometry": { "type": "Point", "coordinates": [ -86.553340000, 30.463560000 ] } },{ "type": "Feature", "properties": { "basename": "HOMESTEAD", "branch": "Air Force", "state":"Florida", "Longitude": -80.401680000, "Latitude": 25.484316000 }, "geometry": { "type": "Point", "coordinates": [ -80.401680000, 25.484316000 ] } },{ "type": "Feature", "properties": { "basename": "HURLBURT FIELD", "branch": "Air Force", "state":"Florida", "Longitude": -86.703040000, "Latitude": 30.410490000 }, "geometry": { "type": "Point", "coordinates": [ -86.703040000, 30.410490000 ] } },{ "type": "Feature", "properties": { "basename": "JACKSONVILLE", "branch": "Air Force", "state":"Florida", "Longitude": -81.677550000, "Latitude": 30.496290000 }, "geometry": { "type": "Point", "coordinates": [ -81.677550000, 30.496290000 ] } },{ "type": "Feature", "properties": { "basename": "MACDILL", "branch": "Air Force", "state":"Florida", "Longitude": -82.503000000, "Latitude": 27.853130000 }, "geometry": { "type": "Point", "coordinates": [ -82.503000000, 27.853130000 ] } },{ "type": "Feature", "properties": { "basename": "PATRICK AIR FORCE BASE", "branch": "Air Force", "state":"Florida", "Longitude": -80.607520000, "Latitude": 28.239460000 }, "geometry": { "type": "Point", "coordinates": [ -80.607520000, 28.239460000 ] } },{ "type": "Feature", "properties": { "basename": "TYNDALL", "branch": "Air Force", "state":"Florida", "Longitude": -85.607510000, "Latitude": 30.080010000 }, "geometry": { "type": "Point", "coordinates": [ -85.607510000, 30.080010000 ] } },{ "type": "Feature", "properties": { "basename": "DOBBINS AIR FORCE BASE", "branch": "Air Force", "state":"Georgia", "Longitude": -84.504640000, "Latitude": 33.918860000 }, "geometry": { "type": "Point", "coordinates": [ -84.504640000, 33.918860000 ] } },{ "type": "Feature", "properties": { "basename": "MOODY AIR FORCE BASE", "branch": "Air Force", "state":"Georgia", "Longitude": -83.192820000, "Latitude": 30.967760000 }, "geometry": { "type": "Point", "coordinates": [ -83.192820000, 30.967760000 ] } },{ "type": "Feature", "properties": { "basename": "ROBINS", "branch": "Air Force", "state":"Georgia", "Longitude": -83.591720000, "Latitude": 32.640000000 }, "geometry": { "type": "Point", "coordinates": [ -83.591720000, 32.640000000 ] } },{ "type": "Feature", "properties": { "basename": "SAVANNAH INTERNATIONAL AIRPORT", "branch": "Air Force", "state":"Georgia", "Longitude": -81.203070000, "Latitude": 32.128513000 }, "geometry": { "type": "Point", "coordinates": [ -81.203070000, 32.128513000 ] } },{ "type": "Feature", "properties": { "basename": "WHEELER ARMY AIR FIELD", "branch": "Air Force", "state":"Hawaii", "Longitude": -158.035970000, "Latitude": 21.475435000 }, "geometry": { "type": "Point", "coordinates": [ -158.035970000, 21.475435000 ] } },{ "type": "Feature", "properties": { "basename": "BOISE", "branch": "Air Force", "state":"Idaho", "Longitude": -116.228289000, "Latitude": 43.562864000 }, "geometry": { "type": "Point", "coordinates": [ -116.228289000, 43.562864000 ] } },{ "type": "Feature", "properties": { "basename": "MOUNTAIN HOME AIR FORCE BASE", "branch": "Air Force", "state":"Idaho", "Longitude": -115.861980000, "Latitude": 43.044410000 }, "geometry": { "type": "Point", "coordinates": [ -115.861980000, 43.044410000 ] } },{ "type": "Feature", "properties": { "basename": "ABRAHAM LINCOLN CAPITAL AP", "branch": "Air Force", "state":"Illinois", "Longitude": -89.678279000, "Latitude": 39.844030000 }, "geometry": { "type": "Point", "coordinates": [ -89.678279000, 39.844030000 ] } },{ "type": "Feature", "properties": { "basename": "CHANUTE AIR FORCE BASE", "branch": "Air Force", "state":"Illinois", "Longitude": -88.143850000, "Latitude": 40.288910000 }, "geometry": { "type": "Point", "coordinates": [ -88.143850000, 40.288910000 ] } },{ "type": "Feature", "properties": { "basename": "GREATER PEORIA AIRPORT", "branch": "Air Force", "state":"Illinois", "Longitude": -89.695760000, "Latitude": 40.665170000 }, "geometry": { "type": "Point", "coordinates": [ -89.695760000, 40.665170000 ] } },{ "type": "Feature", "properties": { "basename": "O'HARE IAP ARS", "branch": "Air Force", "state":"Illinois", "Longitude": -87.903141000, "Latitude": 41.987025000 }, "geometry": { "type": "Point", "coordinates": [ -87.903141000, 41.987025000 ] } },{ "type": "Feature", "properties": { "basename": "SCOTT AIR FORCE BASE", "branch": "Air Force", "state":"Illinois", "Longitude": -89.853655000, "Latitude": 38.543844000 }, "geometry": { "type": "Point", "coordinates": [ -89.853655000, 38.543844000 ] } },{ "type": "Feature", "properties": { "basename": "FORT WAYNE", "branch": "Air Force", "state":"Indiana", "Longitude": -85.176026000, "Latitude": 40.988342000 }, "geometry": { "type": "Point", "coordinates": [ -85.176026000, 40.988342000 ] } },{ "type": "Feature", "properties": { "basename": "GRISSOM AIR RESREVE BASE", "branch": "Air Force", "state":"Indiana", "Longitude": -86.144650000, "Latitude": 40.661820000 }, "geometry": { "type": "Point", "coordinates": [ -86.144650000, 40.661820000 ] } },{ "type": "Feature", "properties": { "basename": "DES MOINES", "branch": "Air Force", "state":"Iowa", "Longitude": -93.658800000, "Latitude": 41.534130000 }, "geometry": { "type": "Point", "coordinates": [ -93.658800000, 41.534130000 ] } },{ "type": "Feature", "properties": { "basename": "FORBES", "branch": "Air Force", "state":"Kansas", "Longitude": -95.682679000, "Latitude": 38.964581000 }, "geometry": { "type": "Point", "coordinates": [ -95.682679000, 38.964581000 ] } },{ "type": "Feature", "properties": { "basename": "MCCONNELL AIR FORCE BASE", "branch": "Air Force", "state":"Kansas", "Longitude": -97.258980000, "Latitude": 37.628223000 }, "geometry": { "type": "Point", "coordinates": [ -97.258980000, 37.628223000 ] } },{ "type": "Feature", "properties": { "basename": "LOUISVILLE IAP", "branch": "Air Force", "state":"Kentucky", "Longitude": -85.724691000, "Latitude": 38.177088000 }, "geometry": { "type": "Point", "coordinates": [ -85.724691000, 38.177088000 ] } },{ "type": "Feature", "properties": { "basename": "BARKSDALE AIR FORCE BASE", "branch": "Air Force", "state":"Louisiana", "Longitude": -93.657140000, "Latitude": 32.501860000 }, "geometry": { "type": "Point", "coordinates": [ -93.657140000, 32.501860000 ] } },{ "type": "Feature", "properties": { "basename": "ENGLAND AIR FORCE BASE", "branch": "Air Force", "state":"Louisiana", "Longitude": -92.538740000, "Latitude": 31.328330000 }, "geometry": { "type": "Point", "coordinates": [ -92.538740000, 31.328330000 ] } },{ "type": "Feature", "properties": { "basename": "LORING AIR FORCE BASE", "branch": "Air Force", "state":"Maine", "Longitude": -67.892090000, "Latitude": 46.945590000 }, "geometry": { "type": "Point", "coordinates": [ -67.892090000, 46.945590000 ] } },{ "type": "Feature", "properties": { "basename": "JB-ANDREWS", "branch": "Air Force", "state":"Maryland", "Longitude": -76.883630000, "Latitude": 38.796520000 }, "geometry": { "type": "Point", "coordinates": [ -76.883630000, 38.796520000 ] } },{ "type": "Feature", "properties": { "basename": "MARTIN STATE AIRPORT", "branch": "Air Force", "state":"Maryland", "Longitude": -76.419669000, "Latitude": 39.333295000 }, "geometry": { "type": "Point", "coordinates": [ -76.419669000, 39.333295000 ] } },{ "type": "Feature", "properties": { "basename": "BARNES MUNICIPAL AIRPORT", "branch": "Air Force", "state":"Massachusetts", "Longitude": -72.715610000, "Latitude": 42.158400000 }, "geometry": { "type": "Point", "coordinates": [ -72.715610000, 42.158400000 ] } },{ "type": "Feature", "properties": { "basename": "HANSCOM", "branch": "Air Force", "state":"Massachusetts", "Longitude": -71.276690000, "Latitude": 42.457230000 }, "geometry": { "type": "Point", "coordinates": [ -71.276690000, 42.457230000 ] } },{ "type": "Feature", "properties": { "basename": "JB-CAPE COD", "branch": "Air Force", "state":"Massachusetts", "Longitude": -70.570090000, "Latitude": 41.671770000 }, "geometry": { "type": "Point", "coordinates": [ -70.570090000, 41.671770000 ] } },{ "type": "Feature", "properties": { "basename": "WESTOVER", "branch": "Air Force", "state":"Massachusetts", "Longitude": -72.543810000, "Latitude": 42.199110000 }, "geometry": { "type": "Point", "coordinates": [ -72.543810000, 42.199110000 ] } },{ "type": "Feature", "properties": { "basename": "ALPENA COUNTY REGIONAL AIRPORT", "branch": "Air Force", "state":"Michigan", "Longitude": -83.563590000, "Latitude": 45.072200000 }, "geometry": { "type": "Point", "coordinates": [ -83.563590000, 45.072200000 ] } },{ "type": "Feature", "properties": { "basename": "K.I. SAWYER AIR FORCE BASE", "branch": "Air Force", "state":"Michigan", "Longitude": -87.387860000, "Latitude": 46.342320000 }, "geometry": { "type": "Point", "coordinates": [ -87.387860000, 46.342320000 ] } },{ "type": "Feature", "properties": { "basename": "SELFRIDGE", "branch": "Air Force", "state":"Michigan", "Longitude": -82.819348000, "Latitude": 42.604660000 }, "geometry": { "type": "Point", "coordinates": [ -82.819348000, 42.604660000 ] } },{ "type": "Feature", "properties": { "basename": "W K KELLOGG", "branch": "Air Force", "state":"Michigan", "Longitude": -85.248880000, "Latitude": 42.319330000 }, "geometry": { "type": "Point", "coordinates": [ -85.248880000, 42.319330000 ] } },{ "type": "Feature", "properties": { "basename": "WURTSMITH AIR FORCE BASE", "branch": "Air Force", "state":"Michigan", "Longitude": -83.380280000, "Latitude": 44.452500000 }, "geometry": { "type": "Point", "coordinates": [ -83.380280000, 44.452500000 ] } },{ "type": "Feature", "properties": { "basename": "DULUTH INTERNATIONAL AIRPORT", "branch": "Air Force", "state":"Minnesota", "Longitude": -92.180010000, "Latitude": 46.838750000 }, "geometry": { "type": "Point", "coordinates": [ -92.180010000, 46.838750000 ] } },{ "type": "Feature", "properties": { "basename": "COLUMBUS AIR FORCE BASE", "branch": "Air Force", "state":"Mississippi", "Longitude": -88.450080000, "Latitude": 33.641470000 }, "geometry": { "type": "Point", "coordinates": [ -88.450080000, 33.641470000 ] } },{ "type": "Feature", "properties": { "basename": "GULFPORT BILOXI REGIONAL AIRPORT", "branch": "Air Force", "state":"Mississippi", "Longitude": -89.002910000, "Latitude": 30.405890000 }, "geometry": { "type": "Point", "coordinates": [ -89.002910000, 30.405890000 ] } },{ "type": "Feature", "properties": { "basename": "JACKSON IAP (ALLEN C THOMPSON)", "branch": "Air Force", "state":"Mississippi", "Longitude": -90.078858000, "Latitude": 32.322893000 }, "geometry": { "type": "Point", "coordinates": [ -90.078858000, 32.322893000 ] } },{ "type": "Feature", "properties": { "basename": "KEESLER", "branch": "Air Force", "state":"Mississippi", "Longitude": -88.925270000, "Latitude": 30.409420000 }, "geometry": { "type": "Point", "coordinates": [ -88.925270000, 30.409420000 ] } },{ "type": "Feature", "properties": { "basename": "KEY FIELD", "branch": "Air Force", "state":"Mississippi", "Longitude": -88.745150000, "Latitude": 32.333550000 }, "geometry": { "type": "Point", "coordinates": [ -88.745150000, 32.333550000 ] } },{ "type": "Feature", "properties": { "basename": "RICHARDS-GEBAUR AIR FORCE BASE", "branch": "Air Force", "state":"Missouri", "Longitude": -94.543740000, "Latitude": 38.841820000 }, "geometry": { "type": "Point", "coordinates": [ -94.543740000, 38.841820000 ] } },{ "type": "Feature", "properties": { "basename": "ROSECRANS MEM", "branch": "Air Force", "state":"Missouri", "Longitude": -94.901590000, "Latitude": 39.769460000 }, "geometry": { "type": "Point", "coordinates": [ -94.901590000, 39.769460000 ] } },{ "type": "Feature", "properties": { "basename": "WHITEMAN AIR FORCE BASE", "branch": "Air Force", "state":"Missouri", "Longitude": -93.560550000, "Latitude": 38.729000000 }, "geometry": { "type": "Point", "coordinates": [ -93.560550000, 38.729000000 ] } },{ "type": "Feature", "properties": { "basename": "GREAT FALLS INTERNATIONAL AIRPORT", "branch": "Air Force", "state":"Montana", "Longitude": -111.356630000, "Latitude": 47.482500000 }, "geometry": { "type": "Point", "coordinates": [ -111.356630000, 47.482500000 ] } },{ "type": "Feature", "properties": { "basename": "MALMSTROM AIR FORCE BASE", "branch": "Air Force", "state":"Montana", "Longitude": -111.179060000, "Latitude": 47.504260000 }, "geometry": { "type": "Point", "coordinates": [ -111.179060000, 47.504260000 ] } },{ "type": "Feature", "properties": { "basename": "OFFUTT", "branch": "Air Force", "state":"Nebraska", "Longitude": -95.917138000, "Latitude": 41.118655000 }, "geometry": { "type": "Point", "coordinates": [ -95.917138000, 41.118655000 ] } },{ "type": "Feature", "properties": { "basename": "CREECH AIR FORCE BASE", "branch": "Air Force", "state":"Nevada", "Longitude": -115.672257000, "Latitude": 36.588476000 }, "geometry": { "type": "Point", "coordinates": [ -115.672257000, 36.588476000 ] } },{ "type": "Feature", "properties": { "basename": "NELLIS AIR FORCE BASE", "branch": "Air Force", "state":"Nevada", "Longitude": -115.032896000, "Latitude": 36.236633000 }, "geometry": { "type": "Point", "coordinates": [ -115.032896000, 36.236633000 ] } },{ "type": "Feature", "properties": { "basename": "NELLIS RANGES ALL", "branch": "Air Force", "state":"Nevada", "Longitude": -115.032896000, "Latitude": 36.236633000 }, "geometry": { "type": "Point", "coordinates": [ -115.032896000, 36.236633000 ] } },{ "type": "Feature", "properties": { "basename": "RENO TAHOE INTERNATIONAL AIRPORT", "branch": "Air Force", "state":"Nevada", "Longitude": -119.768100000, "Latitude": 39.499590000 }, "geometry": { "type": "Point", "coordinates": [ -119.768100000, 39.499590000 ] } },{ "type": "Feature", "properties": { "basename": "TONOPAH AIR FORCE STATION", "branch": "Air Force", "state":"Nevada", "Longitude": -116.772509000, "Latitude": 37.797991000 }, "geometry": { "type": "Point", "coordinates": [ -116.772509000, 37.797991000 ] } },{ "type": "Feature", "properties": { "basename": "NEW BOSTON", "branch": "Air Force", "state":"New Hampshire", "Longitude": -71.628450000, "Latitude": 42.946710000 }, "geometry": { "type": "Point", "coordinates": [ -71.628450000, 42.946710000 ] } },{ "type": "Feature", "properties": { "basename": "PEASE AIR FORCE BASE", "branch": "Air Force", "state":"New Hampshire", "Longitude": -70.816760000, "Latitude": 43.089530000 }, "geometry": { "type": "Point", "coordinates": [ -70.816760000, 43.089530000 ] } },{ "type": "Feature", "properties": { "basename": "JBMDL-DIX", "branch": "Air Force", "state":"New Jersey", "Longitude": -74.618260000, "Latitude": 40.029570000 }, "geometry": { "type": "Point", "coordinates": [ -74.618260000, 40.029570000 ] } },{ "type": "Feature", "properties": { "basename": "JBMDL-LAKEHURST", "branch": "Air Force", "state":"New Jersey", "Longitude": -74.618260000, "Latitude": 40.029570000 }, "geometry": { "type": "Point", "coordinates": [ -74.618260000, 40.029570000 ] } },{ "type": "Feature", "properties": { "basename": "JBMDL-MCGUIRE", "branch": "Air Force", "state":"New Jersey", "Longitude": -74.618260000, "Latitude": 40.029570000 }, "geometry": { "type": "Point", "coordinates": [ -74.618260000, 40.029570000 ] } },{ "type": "Feature", "properties": { "basename": "CANNON", "branch": "Air Force", "state":"New Mexico", "Longitude": -103.318300000, "Latitude": 34.389780000 }, "geometry": { "type": "Point", "coordinates": [ -103.318300000, 34.389780000 ] } },{ "type": "Feature", "properties": { "basename": "HOLLOMAN", "branch": "Air Force", "state":"New Mexico", "Longitude": -106.093948000, "Latitude": 32.846798000 }, "geometry": { "type": "Point", "coordinates": [ -106.093948000, 32.846798000 ] } },{ "type": "Feature", "properties": { "basename": "KIRTLAND", "branch": "Air Force", "state":"New Mexico", "Longitude": -106.594784000, "Latitude": 35.041988000 }, "geometry": { "type": "Point", "coordinates": [ -106.594784000, 35.041988000 ] } },{ "type": "Feature", "properties": { "basename": "FRANCIS S. GABRESKI (WEST HAMPTON)", "branch": "Air Force", "state":"New York", "Longitude": -72.632280000, "Latitude": 40.842000000 }, "geometry": { "type": "Point", "coordinates": [ -72.632280000, 40.842000000 ] } },{ "type": "Feature", "properties": { "basename": "HANCOCK ANG", "branch": "Air Force", "state":"New York", "Longitude": -76.104580000, "Latitude": 43.102360000 }, "geometry": { "type": "Point", "coordinates": [ -76.104580000, 43.102360000 ] } },{ "type": "Feature", "properties": { "basename": "NIAGARA FALLS", "branch": "Air Force", "state":"New York", "Longitude": -78.941560000, "Latitude": 43.116310000 }, "geometry": { "type": "Point", "coordinates": [ -78.941560000, 43.116310000 ] } },{ "type": "Feature", "properties": { "basename": "PLATTSBURGH AIR FORCE BASE", "branch": "Air Force", "state":"New York", "Longitude": -73.447900000, "Latitude": 44.683550000 }, "geometry": { "type": "Point", "coordinates": [ -73.447900000, 44.683550000 ] } },{ "type": "Feature", "properties": { "basename": "ROME RESEARCH SITE", "branch": "Air Force", "state":"New York", "Longitude": -75.405260000, "Latitude": 43.230340000 }, "geometry": { "type": "Point", "coordinates": [ -75.405260000, 43.230340000 ] } },{ "type": "Feature", "properties": { "basename": "ROSLYN ANGB", "branch": "Air Force", "state":"New York", "Longitude": -73.626944000, "Latitude": 40.796389000 }, "geometry": { "type": "Point", "coordinates": [ -73.626944000, 40.796389000 ] } },{ "type": "Feature", "properties": { "basename": "SCHENECTADY CO", "branch": "Air Force", "state":"New York", "Longitude": -73.923621000, "Latitude": 42.852947000 }, "geometry": { "type": "Point", "coordinates": [ -73.923621000, 42.852947000 ] } },{ "type": "Feature", "properties": { "basename": "CHARLOTTE DOUGLAS INTERNATIONAL AIRPORT", "branch": "Air Force", "state":"North Carolina", "Longitude": -80.947320000, "Latitude": 35.214400000 }, "geometry": { "type": "Point", "coordinates": [ -80.947320000, 35.214400000 ] } },{ "type": "Feature", "properties": { "basename": "SEYMOUR JOHNSON AIR FORCE BASE", "branch": "Air Force", "state":"North Carolina", "Longitude": -77.962050000, "Latitude": 35.343370000 }, "geometry": { "type": "Point", "coordinates": [ -77.962050000, 35.343370000 ] } },{ "type": "Feature", "properties": { "basename": "CAVALIER AIR FORCE STATION", "branch": "Air Force", "state":"North Dakota", "Longitude": -97.907558000, "Latitude": 48.724793000 }, "geometry": { "type": "Point", "coordinates": [ -97.907558000, 48.724793000 ] } },{ "type": "Feature", "properties": { "basename": "GRAND FORKS AIR FORCE BASE", "branch": "Air Force", "state":"North Dakota", "Longitude": -97.395721000, "Latitude": 47.964128000 }, "geometry": { "type": "Point", "coordinates": [ -97.395721000, 47.964128000 ] } },{ "type": "Feature", "properties": { "basename": "HECTOR IAP", "branch": "Air Force", "state":"North Dakota", "Longitude": -96.818010000, "Latitude": 46.922340000 }, "geometry": { "type": "Point", "coordinates": [ -96.818010000, 46.922340000 ] } },{ "type": "Feature", "properties": { "basename": "MINOT", "branch": "Air Force", "state":"North Dakota", "Longitude": -101.338670000, "Latitude": 48.415750000 }, "geometry": { "type": "Point", "coordinates": [ -101.338670000, 48.415750000 ] } },{ "type": "Feature", "properties": { "basename": "AIR FORCE PLANT 85", "branch": "Air Force", "state":"Ohio", "Longitude": -82.887370000, "Latitude": 39.989180000 }, "geometry": { "type": "Point", "coordinates": [ -82.887370000, 39.989180000 ] } },{ "type": "Feature", "properties": { "basename": "GENTILE AIR FORCE STATION", "branch": "Air Force", "state":"Ohio", "Longitude": -98.626170000, "Latitude": 29.386110000 }, "geometry": { "type": "Point", "coordinates": [ -98.626170000, 29.386110000 ] } },{ "type": "Feature", "properties": { "basename": "MANSFIELD LAHM", "branch": "Air Force", "state":"Ohio", "Longitude": -82.512374000, "Latitude": 40.813702000 }, "geometry": { "type": "Point", "coordinates": [ -82.512374000, 40.813702000 ] } },{ "type": "Feature", "properties": { "basename": "NEWARK AIR FORCE BASE", "branch": "Air Force", "state":"Ohio", "Longitude": -82.470030000, "Latitude": 40.021550000 }, "geometry": { "type": "Point", "coordinates": [ -82.470030000, 40.021550000 ] } },{ "type": "Feature", "properties": { "basename": "RICKENBACKER AIR NATIONAL GUARD BASE", "branch": "Air Force", "state":"Ohio", "Longitude": -82.943500000, "Latitude": 39.815190000 }, "geometry": { "type": "Point", "coordinates": [ -82.943500000, 39.815190000 ] } },{ "type": "Feature", "properties": { "basename": "SPRINGFIELD-BECKLEY MUNICIPAL AIRPORT", "branch": "Air Force", "state":"Ohio", "Longitude": -83.831551000, "Latitude": 39.848990000 }, "geometry": { "type": "Point", "coordinates": [ -83.831551000, 39.848990000 ] } },{ "type": "Feature", "properties": { "basename": "TOLEDO EXPRESS AIRPORT", "branch": "Air Force", "state":"Ohio", "Longitude": -83.809280000, "Latitude": 41.587830000 }, "geometry": { "type": "Point", "coordinates": [ -83.809280000, 41.587830000 ] } },{ "type": "Feature", "properties": { "basename": "WRIGHT PATTERSON", "branch": "Air Force", "state":"Ohio", "Longitude": -84.053750000, "Latitude": 39.813730000 }, "geometry": { "type": "Point", "coordinates": [ -84.053750000, 39.813730000 ] } },{ "type": "Feature", "properties": { "basename": "AIR FORCE PLANT 3", "branch": "Air Force", "state":"Oklahoma", "Longitude": -95.874580000, "Latitude": 36.180530000 }, "geometry": { "type": "Point", "coordinates": [ -95.874580000, 36.180530000 ] } },{ "type": "Feature", "properties": { "basename": "ALTUS AIR FORCE BASE", "branch": "Air Force", "state":"Oklahoma", "Longitude": -99.288120000, "Latitude": 34.652180000 }, "geometry": { "type": "Point", "coordinates": [ -99.288120000, 34.652180000 ] } },{ "type": "Feature", "properties": { "basename": "TINKER", "branch": "Air Force", "state":"Oklahoma", "Longitude": -97.390250000, "Latitude": 35.414650000 }, "geometry": { "type": "Point", "coordinates": [ -97.390250000, 35.414650000 ] } },{ "type": "Feature", "properties": { "basename": "VANCE", "branch": "Air Force", "state":"Oklahoma", "Longitude": -97.913060000, "Latitude": 36.339300000 }, "geometry": { "type": "Point", "coordinates": [ -97.913060000, 36.339300000 ] } },{ "type": "Feature", "properties": { "basename": "WILL ROGERS WORLD", "branch": "Air Force", "state":"Oklahoma", "Longitude": -97.600560000, "Latitude": 35.393060000 }, "geometry": { "type": "Point", "coordinates": [ -97.600560000, 35.393060000 ] } },{ "type": "Feature", "properties": { "basename": "COOS HEAD AIR NATIONAL GUARD STATION", "branch": "Air Force", "state":"Oregon", "Longitude": -124.340082000, "Latitude": 43.347814000 }, "geometry": { "type": "Point", "coordinates": [ -124.340082000, 43.347814000 ] } },{ "type": "Feature", "properties": { "basename": "PORTLAND", "branch": "Air Force", "state":"Oregon", "Longitude": -122.615910000, "Latitude": 45.532470000 }, "geometry": { "type": "Point", "coordinates": [ -122.615910000, 45.532470000 ] } },{ "type": "Feature", "properties": { "basename": "JB-CHARLESTON-AIR", "branch": "Air Force", "state":"South Carolina", "Longitude": -80.069150000, "Latitude": 32.890980000 }, "geometry": { "type": "Point", "coordinates": [ -80.069150000, 32.890980000 ] } },{ "type": "Feature", "properties": { "basename": "MCENTIRE AIR GUARD BASE", "branch": "Air Force", "state":"South Carolina", "Longitude": -80.801130000, "Latitude": 33.940310000 }, "geometry": { "type": "Point", "coordinates": [ -80.801130000, 33.940310000 ] } },{ "type": "Feature", "properties": { "basename": "MYRTLE BEACH AIR FORCE BASE", "branch": "Air Force", "state":"South Carolina", "Longitude": -78.934120000, "Latitude": 33.673560000 }, "geometry": { "type": "Point", "coordinates": [ -78.934120000, 33.673560000 ] } },{ "type": "Feature", "properties": { "basename": "SHAW AIR FORCE BASE", "branch": "Air Force", "state":"South Carolina", "Longitude": -80.469240000, "Latitude": 33.973870000 }, "geometry": { "type": "Point", "coordinates": [ -80.469240000, 33.973870000 ] } },{ "type": "Feature", "properties": { "basename": "ELLSWORTH AIR FORCE BASE", "branch": "Air Force", "state":"South Dakota", "Longitude": -103.068230000, "Latitude": 44.112490000 }, "geometry": { "type": "Point", "coordinates": [ -103.068230000, 44.112490000 ] } },{ "type": "Feature", "properties": { "basename": "JOE FOSS FIELD", "branch": "Air Force", "state":"South Dakota", "Longitude": -96.743540000, "Latitude": 43.572510000 }, "geometry": { "type": "Point", "coordinates": [ -96.743540000, 43.572510000 ] } },{ "type": "Feature", "properties": { "basename": "ARNOLD", "branch": "Air Force", "state":"Tennessee", "Longitude": -86.049410000, "Latitude": 35.378820000 }, "geometry": { "type": "Point", "coordinates": [ -86.049410000, 35.378820000 ] } },{ "type": "Feature", "properties": { "basename": "MCGHEE/TYSON", "branch": "Air Force", "state":"Tennessee", "Longitude": -83.993890000, "Latitude": 35.810830000 }, "geometry": { "type": "Point", "coordinates": [ -83.993890000, 35.810830000 ] } },{ "type": "Feature", "properties": { "basename": "AIR FORCE PLANT 4", "branch": "Air Force", "state":"Texas", "Longitude": -97.449722000, "Latitude": 32.772222000 }, "geometry": { "type": "Point", "coordinates": [ -97.449722000, 32.772222000 ] } },{ "type": "Feature", "properties": { "basename": "BERGSTROM AIR FORCE BASE", "branch": "Air Force", "state":"Texas", "Longitude": -97.743060000, "Latitude": 30.267150000 }, "geometry": { "type": "Point", "coordinates": [ -97.743060000, 30.267150000 ] } },{ "type": "Feature", "properties": { "basename": "BROOKS CITY-BASE", "branch": "Air Force", "state":"Texas", "Longitude": -98.435172000, "Latitude": 29.341659000 }, "geometry": { "type": "Point", "coordinates": [ -98.435172000, 29.341659000 ] } },{ "type": "Feature", "properties": { "basename": "CARSWELL AIR FORCE BASE", "branch": "Air Force", "state":"Texas", "Longitude": -97.441305000, "Latitude": 32.773413000 }, "geometry": { "type": "Point", "coordinates": [ -97.441305000, 32.773413000 ] } },{ "type": "Feature", "properties": { "basename": "DYESS", "branch": "Air Force", "state":"Texas", "Longitude": -99.841870000, "Latitude": 32.422380000 }, "geometry": { "type": "Point", "coordinates": [ -99.841870000, 32.422380000 ] } },{ "type": "Feature", "properties": { "basename": "JBSA-FORT SAM HOUSTON", "branch": "Air Force", "state":"Texas", "Longitude": -98.454540000, "Latitude": 29.449900000 }, "geometry": { "type": "Point", "coordinates": [ -98.454540000, 29.449900000 ] } },{ "type": "Feature", "properties": { "basename": "JBSA-LACKLAND", "branch": "Air Force", "state":"Texas", "Longitude": -98.454540000, "Latitude": 29.449900000 }, "geometry": { "type": "Point", "coordinates": [ -98.454540000, 29.449900000 ] } },{ "type": "Feature", "properties": { "basename": "JBSA-RANDOLPH", "branch": "Air Force", "state":"Texas", "Longitude": -98.454540000, "Latitude": 29.449900000 }, "geometry": { "type": "Point", "coordinates": [ -98.454540000, 29.449900000 ] } },{ "type": "Feature", "properties": { "basename": "KELLY AIR FORCE BASE", "branch": "Air Force", "state":"Texas", "Longitude": -98.580833000, "Latitude": 29.383333000 }, "geometry": { "type": "Point", "coordinates": [ -98.580833000, 29.383333000 ] } },{ "type": "Feature", "properties": { "basename": "LAUGHLIN", "branch": "Air Force", "state":"Texas", "Longitude": -100.783080000, "Latitude": 29.356560000 }, "geometry": { "type": "Point", "coordinates": [ -100.783080000, 29.356560000 ] } },{ "type": "Feature", "properties": { "basename": "REESE AIR FORCE BASE", "branch": "Air Force", "state":"Texas", "Longitude": -102.029750000, "Latitude": 33.593580000 }, "geometry": { "type": "Point", "coordinates": [ -102.029750000, 33.593580000 ] } },{ "type": "Feature", "properties": { "basename": "SHEPPARD", "branch": "Air Force", "state":"Texas", "Longitude": -98.510730000, "Latitude": 33.968570000 }, "geometry": { "type": "Point", "coordinates": [ -98.510730000, 33.968570000 ] } },{ "type": "Feature", "properties": { "basename": "HILL AIR FORCE BASE", "branch": "Air Force", "state":"Utah", "Longitude": -111.993980000, "Latitude": 41.132110000 }, "geometry": { "type": "Point", "coordinates": [ -111.993980000, 41.132110000 ] } },{ "type": "Feature", "properties": { "basename": "SALT LAKE CITY", "branch": "Air Force", "state":"Utah", "Longitude": -111.979070000, "Latitude": 40.789940000 }, "geometry": { "type": "Point", "coordinates": [ -111.979070000, 40.789940000 ] } },{ "type": "Feature", "properties": { "basename": "BURLINGTON INTERNATIONAL AIRPORT", "branch": "Air Force", "state":"Vermont", "Longitude": -73.151600000, "Latitude": 44.470690000 }, "geometry": { "type": "Point", "coordinates": [ -73.151600000, 44.470690000 ] } },{ "type": "Feature", "properties": { "basename": "JBLE-EUSTIS", "branch": "Air Force", "state":"Virginia", "Longitude": -76.577570000, "Latitude": 37.152510000 }, "geometry": { "type": "Point", "coordinates": [ -76.577570000, 37.152510000 ] } },{ "type": "Feature", "properties": { "basename": "JBLE-LANGLEY", "branch": "Air Force", "state":"Virginia", "Longitude": -76.359220000, "Latitude": 37.083510000 }, "geometry": { "type": "Point", "coordinates": [ -76.359220000, 37.083510000 ] } },{ "type": "Feature", "properties": { "basename": "FAIRCHILD AIR FORCE BASE", "branch": "Air Force", "state":"Washington", "Longitude": -117.643860000, "Latitude": 47.618260000 }, "geometry": { "type": "Point", "coordinates": [ -117.643860000, 47.618260000 ] } },{ "type": "Feature", "properties": { "basename": "FOUR LAKES COMM AIR GUARD STATION", "branch": "Air Force", "state":"Washington", "Longitude": -117.546299000, "Latitude": 47.542049000 }, "geometry": { "type": "Point", "coordinates": [ -117.546299000, 47.542049000 ] } },{ "type": "Feature", "properties": { "basename": "EWVRA SHEPHERD FIELD (MARTINSBURG)", "branch": "Air Force", "state":"West Virginia", "Longitude": -77.818750000, "Latitude": 39.433550000 }, "geometry": { "type": "Point", "coordinates": [ -77.818750000, 39.433550000 ] } },{ "type": "Feature", "properties": { "basename": "YEAGER AIR NATIONAL GUARD", "branch": "Air Force", "state":"West Virginia", "Longitude": -81.586877000, "Latitude": 38.372548000 }, "geometry": { "type": "Point", "coordinates": [ -81.586877000, 38.372548000 ] } },{ "type": "Feature", "properties": { "basename": "GEN B MITCHELL", "branch": "Air Force", "state":"Wisconsin", "Longitude": -87.896650000, "Latitude": 42.947550000 }, "geometry": { "type": "Point", "coordinates": [ -87.896650000, 42.947550000 ] } },{ "type": "Feature", "properties": { "basename": "GENERAL MITCHELL AIR FORCE BASE", "branch": "Air Force", "state":"Wisconsin", "Longitude": -87.896650000, "Latitude": 42.947550000 }, "geometry": { "type": "Point", "coordinates": [ -87.896650000, 42.947550000 ] } },{ "type": "Feature", "properties": { "basename": "VOLK FIELD AIR GUARD BASE", "branch": "Air Force", "state":"Wisconsin", "Longitude": -90.263161000, "Latitude": 43.926224000 }, "geometry": { "type": "Point", "coordinates": [ -90.263161000, 43.926224000 ] } },{ "type": "Feature", "properties": { "basename": "FRANCIS E WARREN AIR FORCE BASE", "branch": "Air Force", "state":"Wyoming", "Longitude": -104.862980000, "Latitude": 41.144690000 }, "geometry": { "type": "Point", "coordinates": [ -104.862980000, 41.144690000 ] } },{ "type": "Feature", "properties": { "basename": "DEFENSE DEPOT SAN JOAQUIN, SHARPE FACILITY FACILITY", "branch": "DLA", "state":"California", "Longitude": -121.267958000, "Latitude": 37.839551000 }, "geometry": { "type": "Point", "coordinates": [ -121.267958000, 37.839551000 ] } },{ "type": "Feature", "properties": { "basename": "DEFENSE DEPOT SUSQUEHANNA, NEW CUMBERLAND FACILITY", "branch": "DLA", "state":"Pennsylvania", "Longitude": -76.838770000, "Latitude": 40.211586000 }, "geometry": { "type": "Point", "coordinates": [ -76.838770000, 40.211586000 ] } },{ "type": "Feature", "properties": { "basename": "DEFENSE SUPPLY CENTER RICHMOND", "branch": "DLA", "state":"Virginia", "Longitude": -77.501010000, "Latitude": 37.584800000 }, "geometry": { "type": "Point", "coordinates": [ -77.501010000, 37.584800000 ] } }]}